PlotNoP1,PlotNoP2,PlotNoP3,PlotNoP4,PlotNoP5,PlotNoP6,Date-Part2,Date1-Part4A,Date2-Part4A,Date1-Part4B,Date2-Part4B,Date3-Part4B,Date4-Part4B,Date5-Part4B,Date-Part7,NHBCNo,Address,Address2,Postcode,TestInterval,DBInfo,Filename
Plot B.1-0-1,Plot B.1-0-1,Plot B.1-0-1,Plot B.1-0-1,Plot B.1-0-1,Plot B.1-0-1,TBA,TBA,TBA,TBA,TBA,TBA,TBA,TBA,TBA,AW169929,"8 Gas Holder Place,","London,",  SE11 5BJ,10 years.,Ryefield Board: MSDB-B1-1,"R459-MBS-BZ-00-CT-X-61101 - B101 - DCN18 Domestic Electrical Cert - 8 Gas Holder Place, London, SE11 5BJ.pdf"
Plot B.1-0-2,Plot B.1-0-2,Plot B.1-0-2,Plot B.1-0-2,Plot B.1-0-2,Plot B.1-0-2,TBA,TBA,TBA,TBA,TBA,TBA,TBA,TBA,TBA,AW169930,"6 Gas Holder Place,","London,",  SE11 5BJ,10 years.,Ryefield Board: MSDB-B1-1,"R459-MBS-BZ-00-CT-X-61102 - B102 - DCN18 Domestic Electrical Cert - 6 Gas Holder Place, London, SE11 5BJ.pdf"
Plot B.1-0-3,Plot B.1-0-3,Plot B.1-0-3,Plot B.1-0-3,Plot B.1-0-3,Plot B.1-0-3,TBA,TBA,TBA,TBA,TBA,TBA,TBA,TBA,TBA,AW169931,"4 Gas Holder Place,","London,",  SE11 5BJ,10 years.,Ryefield Board: MSDB-B1-1,"R459-MBS-BZ-00-CT-X-61103 - B103 - DCN18 Domestic Electrical Cert - 4 Gas Holder Place, London, SE11 5BJ.pdf"
Plot B.1-0-4,Plot B.1-0-4,Plot B.1-0-4,Plot B.1-0-4,Plot B.1-0-4,Plot B.1-0-4,TBA,TBA,TBA,TBA,TBA,TBA,TBA,TBA,TBA,AW169932,"2 Gas Holder Place,","London,",  SE11 5BJ,10 years.,Ryefield Board: MSDB-B1-1,"R459-MBS-BZ-00-CT-X-61104 - B104 - DCN18 Domestic Electrical Cert - 2 Gas Holder Place, London, SE11 5BJ.pdf"
Plot B.1-0-5,Plot B.1-0-5,Plot B.1-0-5,Plot B.1-0-5,Plot B.1-0-5,Plot B.1-0-5,TBA,TBA,TBA,TBA,TBA,TBA,TBA,TBA,TBA,AW169933,"10 Gas Holder Place,","London,",  SE11 5BF,10 years.,Ryefield Board: MSDB-B1-1,"R459-MBS-BZ-00-CT-X-61105 - B105 - DCN18 Domestic Electrical Cert - Flat 1 - 10 Gas Holder Place, London, SE11 5BF.pdf"
Plot B.1-0-6,Plot B.1-0-6,Plot B.1-0-6,Plot B.1-0-6,Plot B.1-0-6,Plot B.1-0-6,TBA,TBA,TBA,TBA,TBA,TBA,TBA,TBA,TBA,AW169934,"10 Gas Holder Place,","London,",  SE11 5BF,10 years.,Ryefield Board: MSDB-B1-1,"R459-MBS-BZ-00-CT-X-61106 - B106 - DCN18 Domestic Electrical Cert - Flat 2 - 10 Gas Holder Place, London, SE11 5BF.pdf"
Plot B.1-1-1,Plot B.1-1-1,Plot B.1-1-1,Plot B.1-1-1,Plot B.1-1-1,Plot B.1-1-1,TBA,TBA,TBA,TBA,TBA,TBA,TBA,TBA,TBA,AW013065,"10 Gas Holder Place,","London,",  SE11 5BF,10 years.,Ryefield Board: MSDB-B1-1,"R459-MBS-BZ-01-CT-X-61111 - B111 - DCN18 Domestic Electrical Cert - Flat 3 - 10 Gas Holder Place, London, SE11 5BF.pdf"
Plot B.1-1-2,Plot B.1-1-2,Plot B.1-1-2,Plot B.1-1-2,Plot B.1-1-2,Plot B.1-1-2,TBA,TBA,TBA,TBA,TBA,TBA,TBA,TBA,TBA,AW013066,"10 Gas Holder Place,","London,",  SE11 5BF,10 years.,Ryefield Board: MSDB-B1-1,"R459-MBS-BZ-01-CT-X-61112 - B112 - DCN18 Domestic Electrical Cert - Flat 4 - 10 Gas Holder Place, London, SE11 5BF.pdf"
Plot B.1-1-3,Plot B.1-1-3,Plot B.1-1-3,Plot B.1-1-3,Plot B.1-1-3,Plot B.1-1-3,TBA,TBA,TBA,TBA,TBA,TBA,TBA,TBA,TBA,AW013067,"10 Gas Holder Place,","London,",  SE11 5BF,10 years.,Ryefield Board: MSDB-B1-1,"R459-MBS-BZ-01-CT-X-61113 - B113 - DCN18 Domestic Electrical Cert - Flat 5 - 10 Gas Holder Place, London, SE11 5BF.pdf"
Plot B.1-1-4,Plot B.1-1-4,Plot B.1-1-4,Plot B.1-1-4,Plot B.1-1-4,Plot B.1-1-4,TBA,TBA,TBA,TBA,TBA,TBA,TBA,TBA,TBA,AW013068,"10 Gas Holder Place,","London,",  SE11 5BF,10 years.,Ryefield Board: MSDB-B1-1,"R459-MBS-BZ-01-CT-X-61114 - B114 - DCN18 Domestic Electrical Cert - Flat 6 - 10 Gas Holder Place, London, SE11 5BF.pdf"
Plot B.1-1-5,Plot B.1-1-5,Plot B.1-1-5,Plot B.1-1-5,Plot B.1-1-5,Plot B.1-1-5,TBA,TBA,TBA,TBA,TBA,TBA,TBA,TBA,TBA,AW013069,"10 Gas Holder Place,","London,",  SE11 5BF,10 years.,Ryefield Board: MSDB-B1-1,"R459-MBS-BZ-01-CT-X-61115 - B115 - DCN18 Domestic Electrical Cert - Flat 7 - 10 Gas Holder Place, London, SE11 5BF.pdf"
Plot B.1-1-6,Plot B.1-1-6,Plot B.1-1-6,Plot B.1-1-6,Plot B.1-1-6,Plot B.1-1-6,TBA,TBA,TBA,TBA,TBA,TBA,TBA,TBA,TBA,AW013070,"10 Gas Holder Place,","London,",  SE11 5BF,10 years.,Ryefield Board: MSDB-B1-1,"R459-MBS-BZ-01-CT-X-61116 - B116 - DCN18 Domestic Electrical Cert - Flat 8 - 10 Gas Holder Place, London, SE11 5BF.pdf"
Plot B.1-1-7,Plot B.1-1-7,Plot B.1-1-7,Plot B.1-1-7,Plot B.1-1-7,Plot B.1-1-7,TBA,TBA,TBA,TBA,TBA,TBA,TBA,TBA,TBA,AW013071,"10 Gas Holder Place,","London,",  SE11 5BF,10 years.,Ryefield Board: MSDB-B1-1,"R459-MBS-BZ-01-CT-X-61117 - B117 - DCN18 Domestic Electrical Cert - Flat 9 - 10 Gas Holder Place, London, SE11 5BF.pdf"
Plot B.1-1-8,Plot B.1-1-8,Plot B.1-1-8,Plot B.1-1-8,Plot B.1-1-8,Plot B.1-1-8,TBA,TBA,TBA,TBA,TBA,TBA,TBA,TBA,TBA,AW013072,"10 Gas Holder Place,","London,",  SE11 5BF,10 years.,Ryefield Board: MSDB-B1-1,"R459-MBS-BZ-01-CT-X-61118 - B118 - DCN18 Domestic Electrical Cert - Flat 10 - 10 Gas Holder Place, London, SE11 5BF.pdf"
Plot B.1-1-9,Plot B.1-1-9,Plot B.1-1-9,Plot B.1-1-9,Plot B.1-1-9,Plot B.1-1-9,TBA,TBA,TBA,TBA,TBA,TBA,TBA,TBA,TBA,AW013073,"10 Gas Holder Place,","London,",  SE11 5BF,10 years.,Ryefield Board: MSDB-B1-1,"R459-MBS-BZ-01-CT-X-61119 - B119 - DCN18 Domestic Electrical Cert - Flat 11 - 10 Gas Holder Place, London, SE11 5BF.pdf"
Plot B.1-1-10,Plot B.1-1-10,Plot B.1-1-10,Plot B.1-1-10,Plot B.1-1-10,Plot B.1-1-10,TBA,TBA,TBA,TBA,TBA,TBA,TBA,TBA,TBA,AW013102,"10 Gas Holder Place,","London,",  SE11 5BF,10 years.,Ryefield Board: MSDB-B1-1,"R459-MBS-BZ-01-CT-X-611110 - B1110 - DCN18 Domestic Electrical Cert - Flat 23 - 10 Gas Holder Place, London, SE11 5BF.pdf"
Plot B.1-1-11,Plot B.1-1-11,Plot B.1-1-11,Plot B.1-1-11,Plot B.1-1-11,Plot B.1-1-11,TBA,TBA,TBA,TBA,TBA,TBA,TBA,TBA,TBA,AW013101,"10 Gas Holder Place,","London,",  SE11 5BF,10 years.,Ryefield Board: MSDB-B1-1,"R459-MBS-BZ-01-CT-X-611111 - B1111 - DCN18 Domestic Electrical Cert - Flat 24 - 10 Gas Holder Place, London, SE11 5BF.pdf"
Plot B.1-2-1,Plot B.1-2-1,Plot B.1-2-1,Plot B.1-2-1,Plot B.1-2-1,Plot B.1-2-1,TBA,TBA,TBA,TBA,TBA,TBA,TBA,TBA,TBA,AW013074,"10 Gas Holder Place,","London,",  SE11 5BF,10 years.,Ryefield Board: MSDB-B1-1,"R459-MBS-BZ-02-CT-X-61121 - B121 - DCN18 Domestic Electrical Cert - Flat 25 - 10 Gas Holder Place, London, SE11 5BF.pdf"
Plot B.1-2-2,Plot B.1-2-2,Plot B.1-2-2,Plot B.1-2-2,Plot B.1-2-2,Plot B.1-2-2,TBA,TBA,TBA,TBA,TBA,TBA,TBA,TBA,TBA,AW013075,"10 Gas Holder Place,","London,",  SE11 5BF,10 years.,Ryefield Board: MSDB-B1-1,"R459-MBS-BZ-02-CT-X-61122 - B122 - DCN18 Domestic Electrical Cert - Flat 26 - 10 Gas Holder Place, London, SE11 5BF.pdf"
Plot B.1-2-3,Plot B.1-2-3,Plot B.1-2-3,Plot B.1-2-3,Plot B.1-2-3,Plot B.1-2-3,TBA,TBA,TBA,TBA,TBA,TBA,TBA,TBA,TBA,AW013076,"10 Gas Holder Place,","London,",  SE11 5BF,10 years.,Ryefield Board: MSDB-B1-1,"R459-MBS-BZ-02-CT-X-61123 - B123 - DCN18 Domestic Electrical Cert - Flat 27 - 10 Gas Holder Place, London, SE11 5BF.pdf"
Plot B.1-2-4,Plot B.1-2-4,Plot B.1-2-4,Plot B.1-2-4,Plot B.1-2-4,Plot B.1-2-4,TBA,TBA,TBA,TBA,TBA,TBA,TBA,TBA,TBA,AW013077,"10 Gas Holder Place,","London,",  SE11 5BF,10 years.,Ryefield Board: MSDB-B1-1,"R459-MBS-BZ-02-CT-X-61124 - B124 - DCN18 Domestic Electrical Cert - Flat 28 - 10 Gas Holder Place, London, SE11 5BF.pdf"
Plot B.1-2-5,Plot B.1-2-5,Plot B.1-2-5,Plot B.1-2-5,Plot B.1-2-5,Plot B.1-2-5,TBA,TBA,TBA,TBA,TBA,TBA,TBA,TBA,TBA,AW013078,"10 Gas Holder Place,","London,",  SE11 5BF,10 years.,Ryefield Board: MSDB-B1-1,"R459-MBS-BZ-02-CT-X-61125 - B125 - DCN18 Domestic Electrical Cert - Flat 29 - 10 Gas Holder Place, London, SE11 5BF.pdf"
Plot B.1-2-6,Plot B.1-2-6,Plot B.1-2-6,Plot B.1-2-6,Plot B.1-2-6,Plot B.1-2-6,TBA,TBA,TBA,TBA,TBA,TBA,TBA,TBA,TBA,AW013079,"10 Gas Holder Place,","London,",  SE11 5BF,10 years.,Ryefield Board: MSDB-B1-1,"R459-MBS-BZ-02-CT-X-61126 - B126 - DCN18 Domestic Electrical Cert - Flat 30 - 10 Gas Holder Place, London, SE11 5BF.pdf"
Plot B.1-2-7,Plot B.1-2-7,Plot B.1-2-7,Plot B.1-2-7,Plot B.1-2-7,Plot B.1-2-7,TBA,TBA,TBA,TBA,TBA,TBA,TBA,TBA,TBA,AW013080,"10 Gas Holder Place,","London,",  SE11 5BF,10 years.,Ryefield Board: MSDB-B1-1,"R459-MBS-BZ-02-CT-X-61127 - B127 - DCN18 Domestic Electrical Cert - Flat 31 - 10 Gas Holder Place, London, SE11 5BF.pdf"
Plot B.1-2-8,Plot B.1-2-8,Plot B.1-2-8,Plot B.1-2-8,Plot B.1-2-8,Plot B.1-2-8,TBA,TBA,TBA,TBA,TBA,TBA,TBA,TBA,TBA,AW013081,"10 Gas Holder Place,","London,",  SE11 5BF,10 years.,Ryefield Board: MSDB-B1-1,"R459-MBS-BZ-02-CT-X-61128 - B128 - DCN18 Domestic Electrical Cert - Flat 32 - 10 Gas Holder Place, London, SE11 5BF.pdf"
Plot B.1-2-9,Plot B.1-2-9,Plot B.1-2-9,Plot B.1-2-9,Plot B.1-2-9,Plot B.1-2-9,TBA,TBA,TBA,TBA,TBA,TBA,TBA,TBA,TBA,AW013082,"10 Gas Holder Place,","London,",  SE11 5BF,10 years.,Ryefield Board: MSDB-B1-1,"R459-MBS-BZ-02-CT-X-61129 - B129 - DCN18 Domestic Electrical Cert - Flat 33 - 10 Gas Holder Place, London, SE11 5BF.pdf"
Plot B.1-2-10,Plot B.1-2-10,Plot B.1-2-10,Plot B.1-2-10,Plot B.1-2-10,Plot B.1-2-10,TBA,TBA,TBA,TBA,TBA,TBA,TBA,TBA,TBA,AW013103,"10 Gas Holder Place,","London,",  SE11 5BF,10 years.,Ryefield Board: MSDB-B1-1,"R459-MBS-BZ-02-CT-X-611210 - B1210 - DCN18 Domestic Electrical Cert - Flat 45 - 10 Gas Holder Place, London, SE11 5BF.pdf"
Plot B.1-2-11,Plot B.1-2-11,Plot B.1-2-11,Plot B.1-2-11,Plot B.1-2-11,Plot B.1-2-11,TBA,TBA,TBA,TBA,TBA,TBA,TBA,TBA,TBA,AW013104,"10 Gas Holder Place,","London,",  SE11 5BF,10 years.,Ryefield Board: MSDB-B1-1,"R459-MBS-BZ-02-CT-X-611211 - B1211 - DCN18 Domestic Electrical Cert - Flat 46 - 10 Gas Holder Place, London, SE11 5BF.pdf"
Plot B.1-3-1,Plot B.1-3-1,Plot B.1-3-1,Plot B.1-3-1,Plot B.1-3-1,Plot B.1-3-1,TBA,TBA,TBA,TBA,TBA,TBA,TBA,TBA,TBA,AW013083,"10 Gas Holder Place,","London,",  SE11 5BF,10 years.,Ryefield Board: MSDB-B1-4,"R459-MBS-BZ-03-CT-X-61131 - B131 - DCN18 Domestic Electrical Cert - Flat 47 - 10 Gas Holder Place, London, SE11 5BF.pdf"
Plot B.1-3-2,Plot B.1-3-2,Plot B.1-3-2,Plot B.1-3-2,Plot B.1-3-2,Plot B.1-3-2,TBA,TBA,TBA,TBA,TBA,TBA,TBA,TBA,TBA,AW013084,"10 Gas Holder Place,","London,",  SE11 5BF,10 years.,Ryefield Board: MSDB-B1-4,"R459-MBS-BZ-03-CT-X-61132 - B132 - DCN18 Domestic Electrical Cert - Flat 48 - 10 Gas Holder Place, London, SE11 5BF.pdf"
Plot B.1-3-3,Plot B.1-3-3,Plot B.1-3-3,Plot B.1-3-3,Plot B.1-3-3,Plot B.1-3-3,TBA,TBA,TBA,TBA,TBA,TBA,TBA,TBA,TBA,AW013085,"10 Gas Holder Place,","London,",  SE11 5BF,10 years.,Ryefield Board: MSDB-B1-4,"R459-MBS-BZ-03-CT-X-61133 - B133 - DCN18 Domestic Electrical Cert - Flat 49 - 10 Gas Holder Place, London, SE11 5BF.pdf"
Plot B.1-3-4,Plot B.1-3-4,Plot B.1-3-4,Plot B.1-3-4,Plot B.1-3-4,Plot B.1-3-4,TBA,TBA,TBA,TBA,TBA,TBA,TBA,TBA,TBA,AW013086,"10 Gas Holder Place,","London,",  SE11 5BF,10 years.,Ryefield Board: MSDB-B1-4,"R459-MBS-BZ-03-CT-X-61134 - B134 - DCN18 Domestic Electrical Cert - Flat 50 - 10 Gas Holder Place, London, SE11 5BF.pdf"
Plot B.1-3-5,Plot B.1-3-5,Plot B.1-3-5,Plot B.1-3-5,Plot B.1-3-5,Plot B.1-3-5,TBA,TBA,TBA,TBA,TBA,TBA,TBA,TBA,TBA,AW013087,"10 Gas Holder Place,","London,",  SE11 5BF,10 years.,Ryefield Board: MSDB-B1-4,"R459-MBS-BZ-03-CT-X-61135 - B135 - DCN18 Domestic Electrical Cert - Flat 51 - 10 Gas Holder Place, London, SE11 5BF.pdf"
Plot B.1-3-6,Plot B.1-3-6,Plot B.1-3-6,Plot B.1-3-6,Plot B.1-3-6,Plot B.1-3-6,TBA,TBA,TBA,TBA,TBA,TBA,TBA,TBA,TBA,AW013088,"10 Gas Holder Place,","London,",  SE11 5BF,10 years.,Ryefield Board: MSDB-B1-4,"R459-MBS-BZ-03-CT-X-61136 - B136 - DCN18 Domestic Electrical Cert - Flat 52 - 10 Gas Holder Place, London, SE11 5BF.pdf"
Plot B.1-3-7,Plot B.1-3-7,Plot B.1-3-7,Plot B.1-3-7,Plot B.1-3-7,Plot B.1-3-7,TBA,TBA,TBA,TBA,TBA,TBA,TBA,TBA,TBA,AW013089,"10 Gas Holder Place,","London,",  SE11 5BF,10 years.,Ryefield Board: MSDB-B1-4,"R459-MBS-BZ-03-CT-X-61137 - B137 - DCN18 Domestic Electrical Cert - Flat 53 - 10 Gas Holder Place, London, SE11 5BF.pdf"
Plot B.1-3-8,Plot B.1-3-8,Plot B.1-3-8,Plot B.1-3-8,Plot B.1-3-8,Plot B.1-3-8,TBA,TBA,TBA,TBA,TBA,TBA,TBA,TBA,TBA,AW013090,"10 Gas Holder Place,","London,",  SE11 5BF,10 years.,Ryefield Board: MSDB-B1-4,"R459-MBS-BZ-03-CT-X-61138 - B138 - DCN18 Domestic Electrical Cert - Flat 54 - 10 Gas Holder Place, London, SE11 5BF.pdf"
Plot B.1-3-9,Plot B.1-3-9,Plot B.1-3-9,Plot B.1-3-9,Plot B.1-3-9,Plot B.1-3-9,TBA,TBA,TBA,TBA,TBA,TBA,TBA,TBA,TBA,AW013091,"10 Gas Holder Place,","London,",  SE11 5BF,10 years.,Ryefield Board: MSDB-B1-4,"R459-MBS-BZ-03-CT-X-61139 - B139 - DCN18 Domestic Electrical Cert - Flat 55 - 10 Gas Holder Place, London, SE11 5BF.pdf"
Plot B.1-3-10,Plot B.1-3-10,Plot B.1-3-10,Plot B.1-3-10,Plot B.1-3-10,Plot B.1-3-10,TBA,TBA,TBA,TBA,TBA,TBA,TBA,TBA,TBA,AW013105,"10 Gas Holder Place,","London,",  SE11 5BH,10 years.,Ryefield Board: MSDB-B1-4,"R459-MBS-BZ-03-CT-X-611310 - B1310 - DCN18 Domestic Electrical Cert - Flat 66 - 10 Gas Holder Place, London, SE11 5BH.pdf"
Plot B.1-3-11,Plot B.1-3-11,Plot B.1-3-11,Plot B.1-3-11,Plot B.1-3-11,Plot B.1-3-11,TBA,TBA,TBA,TBA,TBA,TBA,TBA,TBA,TBA,AW013106,"10 Gas Holder Place,","London,",  SE11 5BH,10 years.,Ryefield Board: MSDB-B1-4,"R459-MBS-BZ-03-CT-X-611311 - B1311 - DCN18 Domestic Electrical Cert - Flat 67 - 10 Gas Holder Place, London, SE11 5BH.pdf"
Plot B.1-4-1,Plot B.1-4-1,Plot B.1-4-1,Plot B.1-4-1,Plot B.1-4-1,Plot B.1-4-1,TBA,TBA,TBA,TBA,TBA,TBA,TBA,TBA,TBA,AW013092,"10 Gas Holder Place,","London,",  SE11 5BH,10 years.,Ryefield Board: MSDB-B1-4,"R459-MBS-BZ-04-CT-X-61141 - B141 - DCN18 Domestic Electrical Cert - Flat 68 - 10 Gas Holder Place, London, SE11 5BH.pdf"
Plot B.1-4-2,Plot B.1-4-2,Plot B.1-4-2,Plot B.1-4-2,Plot B.1-4-2,Plot B.1-4-2,TBA,TBA,TBA,TBA,TBA,TBA,TBA,TBA,TBA,AW013093,"10 Gas Holder Place,","London,",  SE11 5BH,10 years.,Ryefield Board: MSDB-B1-4,"R459-MBS-BZ-04-CT-X-61142 - B142 - DCN18 Domestic Electrical Cert - Flat 69 - 10 Gas Holder Place, London, SE11 5BH.pdf"
Plot B.1-4-3,Plot B.1-4-3,Plot B.1-4-3,Plot B.1-4-3,Plot B.1-4-3,Plot B.1-4-3,TBA,TBA,TBA,TBA,TBA,TBA,TBA,TBA,TBA,AW013094,"10 Gas Holder Place,","London,",  SE11 5BH,10 years.,Ryefield Board: MSDB-B1-4,"R459-MBS-BZ-04-CT-X-61143 - B143 - DCN18 Domestic Electrical Cert - Flat 70 - 10 Gas Holder Place, London, SE11 5BH.pdf"
Plot B.1-4-4,Plot B.1-4-4,Plot B.1-4-4,Plot B.1-4-4,Plot B.1-4-4,Plot B.1-4-4,TBA,TBA,TBA,TBA,TBA,TBA,TBA,TBA,TBA,AW013095,"10 Gas Holder Place,","London,",  SE11 5BH,10 years.,Ryefield Board: MSDB-B1-4,"R459-MBS-BZ-04-CT-X-61144 - B144 - DCN18 Domestic Electrical Cert - Flat 71 - 10 Gas Holder Place, London, SE11 5BH.pdf"
Plot B.1-4-5,Plot B.1-4-5,Plot B.1-4-5,Plot B.1-4-5,Plot B.1-4-5,Plot B.1-4-5,TBA,TBA,TBA,TBA,TBA,TBA,TBA,TBA,TBA,AW013096,"10 Gas Holder Place,","London,",  SE11 5BH,10 years.,Ryefield Board: MSDB-B1-4,"R459-MBS-BZ-04-CT-X-61145 - B145 - DCN18 Domestic Electrical Cert - Flat 72 - 10 Gas Holder Place, London, SE11 5BH.pdf"
Plot B.1-4-6,Plot B.1-4-6,Plot B.1-4-6,Plot B.1-4-6,Plot B.1-4-6,Plot B.1-4-6,TBA,TBA,TBA,TBA,TBA,TBA,TBA,TBA,TBA,AW013097,"10 Gas Holder Place,","London,",  SE11 5BH,10 years.,Ryefield Board: MSDB-B1-4,"R459-MBS-BZ-04-CT-X-61146 - B146 - DCN18 Domestic Electrical Cert - Flat 73 - 10 Gas Holder Place, London, SE11 5BH.pdf"
Plot B.1-4-7,Plot B.1-4-7,Plot B.1-4-7,Plot B.1-4-7,Plot B.1-4-7,Plot B.1-4-7,TBA,TBA,TBA,TBA,TBA,TBA,TBA,TBA,TBA,AW013098,"10 Gas Holder Place,","London,",  SE11 5BH,10 years.,Ryefield Board: MSDB-B1-4,"R459-MBS-BZ-04-CT-X-61147 - B147 - DCN18 Domestic Electrical Cert - Flat 74 - 10 Gas Holder Place, London, SE11 5BH.pdf"
Plot B.1-4-8,Plot B.1-4-8,Plot B.1-4-8,Plot B.1-4-8,Plot B.1-4-8,Plot B.1-4-8,TBA,TBA,TBA,TBA,TBA,TBA,TBA,TBA,TBA,AW013099,"10 Gas Holder Place,","London,",  SE11 5BH,10 years.,Ryefield Board: MSDB-B1-4,"R459-MBS-BZ-04-CT-X-61148 - B148 - DCN18 Domestic Electrical Cert - Flat 75 - 10 Gas Holder Place, London, SE11 5BH.pdf"
Plot B.1-4-9,Plot B.1-4-9,Plot B.1-4-9,Plot B.1-4-9,Plot B.1-4-9,Plot B.1-4-9,TBA,TBA,TBA,TBA,TBA,TBA,TBA,TBA,TBA,AW013100,"10 Gas Holder Place,","London,",  SE11 5BH,10 years.,Ryefield Board: MSDB-B1-4,"R459-MBS-BZ-04-CT-X-61149 - B149 - DCN18 Domestic Electrical Cert - Flat 76 - 10 Gas Holder Place, London, SE11 5BH.pdf"
Plot B.1-4-10,Plot B.1-4-10,Plot B.1-4-10,Plot B.1-4-10,Plot B.1-4-10,Plot B.1-4-10,TBA,TBA,TBA,TBA,TBA,TBA,TBA,TBA,TBA,AW013107,"10 Gas Holder Place,","London,",  SE11 5BH,10 years.,Ryefield Board: MSDB-B1-4,"R459-MBS-BZ-04-CT-X-611410 - B1410 - DCN18 Domestic Electrical Cert - Flat 87 - 10 Gas Holder Place, London, SE11 5BH.pdf"
Plot B.1-4-11,Plot B.1-4-11,Plot B.1-4-11,Plot B.1-4-11,Plot B.1-4-11,Plot B.1-4-11,TBA,TBA,TBA,TBA,TBA,TBA,TBA,TBA,TBA,AW013108,"10 Gas Holder Place,","London,",  SE11 5BH,10 years.,Ryefield Board: MSDB-B1-4,"R459-MBS-BZ-04-CT-X-611411 - B1411 - DCN18 Domestic Electrical Cert - Flat 88 - 10 Gas Holder Place, London, SE11 5BH.pdf"
Plot B.1-5-1,Plot B.1-5-1,Plot B.1-5-1,Plot B.1-5-1,Plot B.1-5-1,Plot B.1-5-1,TBA,TBA,TBA,TBA,TBA,TBA,TBA,TBA,TBA,AW013101,"10 Gas Holder Place,","London,",  SE11 5BH,10 years.,Ryefield Board: MSDB-B1-4,"R459-MBS-BZ-05-CT-X-61151 - B151 - DCN18 Domestic Electrical Cert - Flat 89 - 10 Gas Holder Place, London, SE11 5BH.pdf"
Plot B.1-5-2,Plot B.1-5-2,Plot B.1-5-2,Plot B.1-5-2,Plot B.1-5-2,Plot B.1-5-2,TBA,TBA,TBA,TBA,TBA,TBA,TBA,TBA,TBA,AW013133,"10 Gas Holder Place,","London,",  SE11 5BH,10 years.,Ryefield Board: MSDB-B1-4,"R459-MBS-BZ-05-CT-X-61152 - B152 - DCN18 Domestic Electrical Cert - Flat 90 - 10 Gas Holder Place, London, SE11 5BH.pdf"
Plot B.1-5-3,Plot B.1-5-3,Plot B.1-5-3,Plot B.1-5-3,Plot B.1-5-3,Plot B.1-5-3,TBA,TBA,TBA,TBA,TBA,TBA,TBA,TBA,TBA,AW013134,"10 Gas Holder Place,","London,",  SE11 5BH,10 years.,Ryefield Board: MSDB-B1-4,"R459-MBS-BZ-05-CT-X-61153 - B153 - DCN18 Domestic Electrical Cert - Flat 91 - 10 Gas Holder Place, London, SE11 5BH.pdf"
Plot B.1-5-4,Plot B.1-5-4,Plot B.1-5-4,Plot B.1-5-4,Plot B.1-5-4,Plot B.1-5-4,TBA,TBA,TBA,TBA,TBA,TBA,TBA,TBA,TBA,AW013135,"10 Gas Holder Place,","London,",  SE11 5BH,10 years.,Ryefield Board: MSDB-B1-4,"R459-MBS-BZ-05-CT-X-61154 - B154 - DCN18 Domestic Electrical Cert - Flat 92 - 10 Gas Holder Place, London, SE11 5BH.pdf"
Plot B.1-5-5,Plot B.1-5-5,Plot B.1-5-5,Plot B.1-5-5,Plot B.1-5-5,Plot B.1-5-5,TBA,TBA,TBA,TBA,TBA,TBA,TBA,TBA,TBA,AW013136,"10 Gas Holder Place,","London,",  SE11 5BH,10 years.,Ryefield Board: MSDB-B1-4,"R459-MBS-BZ-05-CT-X-61155 - B155 - DCN18 Domestic Electrical Cert - Flat 93 - 10 Gas Holder Place, London, SE11 5BH.pdf"
Plot B.1-5-6,Plot B.1-5-6,Plot B.1-5-6,Plot B.1-5-6,Plot B.1-5-6,Plot B.1-5-6,TBA,TBA,TBA,TBA,TBA,TBA,TBA,TBA,TBA,AW013137,"10 Gas Holder Place,","London,",  SE11 5BH,10 years.,Ryefield Board: MSDB-B1-4,"R459-MBS-BZ-05-CT-X-61156 - B156 - DCN18 Domestic Electrical Cert - Flat 94 - 10 Gas Holder Place, London, SE11 5BH.pdf"
Plot B.1-5-7,Plot B.1-5-7,Plot B.1-5-7,Plot B.1-5-7,Plot B.1-5-7,Plot B.1-5-7,TBA,TBA,TBA,TBA,TBA,TBA,TBA,TBA,TBA,AW013138,"10 Gas Holder Place,","London,",  SE11 5BH,10 years.,Ryefield Board: MSDB-B1-4,"R459-MBS-BZ-05-CT-X-61157 - B157 - DCN18 Domestic Electrical Cert - Flat 95 - 10 Gas Holder Place, London, SE11 5BH.pdf"
Plot B.1-5-8,Plot B.1-5-8,Plot B.1-5-8,Plot B.1-5-8,Plot B.1-5-8,Plot B.1-5-8,TBA,TBA,TBA,TBA,TBA,TBA,TBA,TBA,TBA,AW013139,"10 Gas Holder Place,","London,",  SE11 5BH,10 years.,Ryefield Board: MSDB-B1-4,"R459-MBS-BZ-05-CT-X-61158 - B158 - DCN18 Domestic Electrical Cert - Flat 96 - 10 Gas Holder Place, London, SE11 5BH.pdf"
Plot B.1-5-9,Plot B.1-5-9,Plot B.1-5-9,Plot B.1-5-9,Plot B.1-5-9,Plot B.1-5-9,TBA,TBA,TBA,TBA,TBA,TBA,TBA,TBA,TBA,AW013140,"10 Gas Holder Place,","London,",  SE11 5BH,10 years.,Ryefield Board: MSDB-B1-4,"R459-MBS-BZ-05-CT-X-61159 - B159 - DCN18 Domestic Electrical Cert - Flat 97 - 10 Gas Holder Place, London, SE11 5BH.pdf"
Plot B.1-5-10,Plot B.1-5-10,Plot B.1-5-10,Plot B.1-5-10,Plot B.1-5-10,Plot B.1-5-10,TBA,TBA,TBA,TBA,TBA,TBA,TBA,TBA,TBA,AW013279,"10 Gas Holder Place,","London,",  SE11 5BH,10 years.,Ryefield Board: MSDB-B1-4,"R459-MBS-BZ-05-CT-X-611510 - B1510 - DCN18 Domestic Electrical Cert - Flat 98 - 10 Gas Holder Place, London, SE11 5BH.pdf"
Plot B.1-5-11,Plot B.1-5-11,Plot B.1-5-11,Plot B.1-5-11,Plot B.1-5-11,Plot B.1-5-11,TBA,TBA,TBA,TBA,TBA,TBA,TBA,TBA,TBA,AW013280,"10 Gas Holder Place,","London,",  SE11 5BH,10 years.,Ryefield Board: MSDB-B1-4,"R459-MBS-BZ-05-CT-X-611511 - B1511 - DCN18 Domestic Electrical Cert - Flat 99 - 10 Gas Holder Place, London, SE11 5BH.pdf"
Plot B.1-6-1,Plot B.1-6-1,Plot B.1-6-1,Plot B.1-6-1,Plot B.1-6-1,Plot B.1-6-1,TBA,TBA,TBA,TBA,TBA,TBA,TBA,TBA,TBA,AW013141,"10 Gas Holder Place,","London,",  SE11 5BH,10 years.,Ryefield Board: MSDB-B1-6,"R459-MBS-BZ-06-CT-X-61161 - B161 - DCN18 Domestic Electrical Cert - Flat 100 - 10 Gas Holder Place, London, SE11 5BH.pdf"
Plot B.1-6-2,Plot B.1-6-2,Plot B.1-6-2,Plot B.1-6-2,Plot B.1-6-2,Plot B.1-6-2,TBA,TBA,TBA,TBA,TBA,TBA,TBA,TBA,TBA,AW013142,"10 Gas Holder Place,","London,",  SE11 5BH,10 years.,Ryefield Board: MSDB-B1-6,"R459-MBS-BZ-06-CT-X-61162 - B162 - DCN18 Domestic Electrical Cert - Flat 101 - 10 Gas Holder Place, London, SE11 5BH.pdf"
Plot B.1-6-3,Plot B.1-6-3,Plot B.1-6-3,Plot B.1-6-3,Plot B.1-6-3,Plot B.1-6-3,TBA,TBA,TBA,TBA,TBA,TBA,TBA,TBA,TBA,AW013143,"10 Gas Holder Place,","London,",  SE11 5BH,10 years.,Ryefield Board: MSDB-B1-6,"R459-MBS-BZ-06-CT-X-61163 - B163 - DCN18 Domestic Electrical Cert - Flat 102 - 10 Gas Holder Place, London, SE11 5BH.pdf"
Plot B.1-6-4,Plot B.1-6-4,Plot B.1-6-4,Plot B.1-6-4,Plot B.1-6-4,Plot B.1-6-4,TBA,TBA,TBA,TBA,TBA,TBA,TBA,TBA,TBA,AW013144,"10 Gas Holder Place,","London,",  SE11 5BH,10 years.,Ryefield Board: MSDB-B1-6,"R459-MBS-BZ-06-CT-X-61164 - B164 - DCN18 Domestic Electrical Cert - Flat 103 - 10 Gas Holder Place, London, SE11 5BH.pdf"
Plot B.1-6-5,Plot B.1-6-5,Plot B.1-6-5,Plot B.1-6-5,Plot B.1-6-5,Plot B.1-6-5,TBA,TBA,TBA,TBA,TBA,TBA,TBA,TBA,TBA,AW013145,"10 Gas Holder Place,","London,",  SE11 5BH,10 years.,Ryefield Board: MSDB-B1-6,"R459-MBS-BZ-06-CT-X-61165 - B165 - DCN18 Domestic Electrical Cert - Flat 104 - 10 Gas Holder Place, London, SE11 5BH.pdf"
Plot B.1-6-6,Plot B.1-6-6,Plot B.1-6-6,Plot B.1-6-6,Plot B.1-6-6,Plot B.1-6-6,TBA,TBA,TBA,TBA,TBA,TBA,TBA,TBA,TBA,AW013146,"10 Gas Holder Place,","London,",  SE11 5BH,10 years.,Ryefield Board: MSDB-B1-6,"R459-MBS-BZ-06-CT-X-61166 - B166 - DCN18 Domestic Electrical Cert - Flat 105 - 10 Gas Holder Place, London, SE11 5BH.pdf"
Plot B.1-6-7,Plot B.1-6-7,Plot B.1-6-7,Plot B.1-6-7,Plot B.1-6-7,Plot B.1-6-7,TBA,TBA,TBA,TBA,TBA,TBA,TBA,TBA,TBA,AW013147,"10 Gas Holder Place,","London,",  SE11 5BH,10 years.,Ryefield Board: MSDB-B1-6,"R459-MBS-BZ-06-CT-X-61167 - B167 - DCN18 Domestic Electrical Cert - Flat 106 - 10 Gas Holder Place, London, SE11 5BH.pdf"
Plot B.1-6-8,Plot B.1-6-8,Plot B.1-6-8,Plot B.1-6-8,Plot B.1-6-8,Plot B.1-6-8,TBA,TBA,TBA,TBA,TBA,TBA,TBA,TBA,TBA,AW013148,"10 Gas Holder Place,","London,",  SE11 5BH,10 years.,Ryefield Board: MSDB-B1-6,"R459-MBS-BZ-06-CT-X-61168 - B168 - DCN18 Domestic Electrical Cert - Flat 107 - 10 Gas Holder Place, London, SE11 5BH.pdf"
Plot B.1-6-9,Plot B.1-6-9,Plot B.1-6-9,Plot B.1-6-9,Plot B.1-6-9,Plot B.1-6-9,TBA,TBA,TBA,TBA,TBA,TBA,TBA,TBA,TBA,AW013149,"10 Gas Holder Place,","London,",  SE11 5BH,10 years.,Ryefield Board: MSDB-B1-6,"R459-MBS-BZ-06-CT-X-61169 - B169 - DCN18 Domestic Electrical Cert - Flat 108 - 10 Gas Holder Place, London, SE11 5BH.pdf"
Plot B.1-6-10,Plot B.1-6-10,Plot B.1-6-10,Plot B.1-6-10,Plot B.1-6-10,Plot B.1-6-10,TBA,TBA,TBA,TBA,TBA,TBA,TBA,TBA,TBA,AW013281,"10 Gas Holder Place,","London,",  SE11 5BH,10 years.,Ryefield Board: MSDB-B1-6,"R459-MBS-BZ-06-CT-X-611610 - B1610 - DCN18 Domestic Electrical Cert - Flat 109 - 10 Gas Holder Place, London, SE11 5BH.pdf"
Plot B.1-6-11,Plot B.1-6-11,Plot B.1-6-11,Plot B.1-6-11,Plot B.1-6-11,Plot B.1-6-11,TBA,TBA,TBA,TBA,TBA,TBA,TBA,TBA,TBA,AW013282,"10 Gas Holder Place,","London,",  SE11 5BH,10 years.,Ryefield Board: MSDB-B1-6,"R459-MBS-BZ-06-CT-X-611611 - B1611 - DCN18 Domestic Electrical Cert - Flat 110 - 10 Gas Holder Place, London, SE11 5BH.pdf"
Plot B.1-7-1,Plot B.1-7-1,Plot B.1-7-1,Plot B.1-7-1,Plot B.1-7-1,Plot B.1-7-1,TBA,TBA,TBA,TBA,TBA,TBA,TBA,TBA,TBA,AW013150,"10 Gas Holder Place,","London,",  SE11 5BH,10 years.,Ryefield Board: MSDB-B1-6,"R459-MBS-BZ-07-CT-X-61171 - B171 - DCN18 Domestic Electrical Cert - Flat 111 - 10 Gas Holder Place, London, SE11 5BH.pdf"
Plot B.1-7-2,Plot B.1-7-2,Plot B.1-7-2,Plot B.1-7-2,Plot B.1-7-2,Plot B.1-7-2,TBA,TBA,TBA,TBA,TBA,TBA,TBA,TBA,TBA,AW013151,"10 Gas Holder Place,","London,",  SE11 5BH,10 years.,Ryefield Board: MSDB-B1-6,"R459-MBS-BZ-07-CT-X-61172 - B172 - DCN18 Domestic Electrical Cert - Flat 112 - 10 Gas Holder Place, London, SE11 5BH.pdf"
Plot B.1-7-3,Plot B.1-7-3,Plot B.1-7-3,Plot B.1-7-3,Plot B.1-7-3,Plot B.1-7-3,TBA,TBA,TBA,TBA,TBA,TBA,TBA,TBA,TBA,AW013152,"10 Gas Holder Place,","London,",  SE11 5BH,10 years.,Ryefield Board: MSDB-B1-6,"R459-MBS-BZ-07-CT-X-61173 - B173 - DCN18 Domestic Electrical Cert - Flat 113 - 10 Gas Holder Place, London, SE11 5BH.pdf"
Plot B.1-7-4,Plot B.1-7-4,Plot B.1-7-4,Plot B.1-7-4,Plot B.1-7-4,Plot B.1-7-4,TBA,TBA,TBA,TBA,TBA,TBA,TBA,TBA,TBA,AW013153,"10 Gas Holder Place,","London,",  SE11 5BH,10 years.,Ryefield Board: MSDB-B1-6,"R459-MBS-BZ-07-CT-X-61174 - B174 - DCN18 Domestic Electrical Cert - Flat 114 - 10 Gas Holder Place, London, SE11 5BH.pdf"
Plot B.1-7-5,Plot B.1-7-5,Plot B.1-7-5,Plot B.1-7-5,Plot B.1-7-5,Plot B.1-7-5,TBA,TBA,TBA,TBA,TBA,TBA,TBA,TBA,TBA,AW013154,"10 Gas Holder Place,","London,",  SE11 5BH,10 years.,Ryefield Board: MSDB-B1-6,"R459-MBS-BZ-07-CT-X-61175 - B175 - DCN18 Domestic Electrical Cert - Flat 115 - 10 Gas Holder Place, London, SE11 5BH.pdf"
Plot B.1-7-6,Plot B.1-7-6,Plot B.1-7-6,Plot B.1-7-6,Plot B.1-7-6,Plot B.1-7-6,TBA,TBA,TBA,TBA,TBA,TBA,TBA,TBA,TBA,AW013155,"10 Gas Holder Place,","London,",  SE11 5BH,10 years.,Ryefield Board: MSDB-B1-6,"R459-MBS-BZ-07-CT-X-61176 - B176 - DCN18 Domestic Electrical Cert - Flat 116 - 10 Gas Holder Place, London, SE11 5BH.pdf"
Plot B.1-7-7,Plot B.1-7-7,Plot B.1-7-7,Plot B.1-7-7,Plot B.1-7-7,Plot B.1-7-7,TBA,TBA,TBA,TBA,TBA,TBA,TBA,TBA,TBA,AW013156,"10 Gas Holder Place,","London,",  SE11 5BH,10 years.,Ryefield Board: MSDB-B1-6,"R459-MBS-BZ-07-CT-X-61177 - B177 - DCN18 Domestic Electrical Cert - Flat 117 - 10 Gas Holder Place, London, SE11 5BH.pdf"
Plot B.1-7-8,Plot B.1-7-8,Plot B.1-7-8,Plot B.1-7-8,Plot B.1-7-8,Plot B.1-7-8,TBA,TBA,TBA,TBA,TBA,TBA,TBA,TBA,TBA,AW013157,"10 Gas Holder Place,","London,",  SE11 5BH,10 years.,Ryefield Board: MSDB-B1-6,"R459-MBS-BZ-07-CT-X-61178 - B178 - DCN18 Domestic Electrical Cert - Flat 118 - 10 Gas Holder Place, London, SE11 5BH.pdf"
Plot B.1-7-9,Plot B.1-7-9,Plot B.1-7-9,Plot B.1-7-9,Plot B.1-7-9,Plot B.1-7-9,TBA,TBA,TBA,TBA,TBA,TBA,TBA,TBA,TBA,AW013158,"10 Gas Holder Place,","London,",  SE11 5BH,10 years.,Ryefield Board: MSDB-B1-6,"R459-MBS-BZ-07-CT-X-61179 - B179 - DCN18 Domestic Electrical Cert - Flat 119 - 10 Gas Holder Place, London, SE11 5BH.pdf"
Plot B.1-7-10,Plot B.1-7-10,Plot B.1-7-10,Plot B.1-7-10,Plot B.1-7-10,Plot B.1-7-10,TBA,TBA,TBA,TBA,TBA,TBA,TBA,TBA,TBA,AW013283,"10 Gas Holder Place,","London,",  SE11 5BH,10 years.,Ryefield Board: MSDB-B1-6,"R459-MBS-BZ-07-CT-X-611710 - B1710 - DCN18 Domestic Electrical Cert - Flat 120 - 10 Gas Holder Place, London, SE11 5BH.pdf"
Plot B.1-8-1,Plot B.1-8-1,Plot B.1-8-1,Plot B.1-8-1,Plot B.1-8-1,Plot B.1-8-1,TBA,TBA,TBA,TBA,TBA,TBA,TBA,TBA,TBA,AW013159,"10 Gas Holder Place,","London,",  SE11 5BH,10 years.,Ryefield Board: MSDB-B1-9,"R459-MBS-BZ-08-CT-X-61181 - B181 - DCN18 Domestic Electrical Cert - Flat 121 - 10 Gas Holder Place, London, SE11 5BH.pdf"
Plot B.1-8-2,Plot B.1-8-2,Plot B.1-8-2,Plot B.1-8-2,Plot B.1-8-2,Plot B.1-8-2,TBA,TBA,TBA,TBA,TBA,TBA,TBA,TBA,TBA,AW013160,"10 Gas Holder Place,","London,",  SE11 5BH,10 years.,Ryefield Board: MSDB-B1-9,"R459-MBS-BZ-08-CT-X-61182 - B182 - DCN18 Domestic Electrical Cert - Flat 122 - 10 Gas Holder Place, London, SE11 5BH.pdf"
Plot B.1-8-3,Plot B.1-8-3,Plot B.1-8-3,Plot B.1-8-3,Plot B.1-8-3,Plot B.1-8-3,TBA,TBA,TBA,TBA,TBA,TBA,TBA,TBA,TBA,AW013161,"10 Gas Holder Place,","London,",  SE11 5BH,10 years.,Ryefield Board: MSDB-B1-9,"R459-MBS-BZ-08-CT-X-61183 - B183 - DCN18 Domestic Electrical Cert - Flat 123 - 10 Gas Holder Place, London, SE11 5BH.pdf"
Plot B.1-8-4,Plot B.1-8-4,Plot B.1-8-4,Plot B.1-8-4,Plot B.1-8-4,Plot B.1-8-4,TBA,TBA,TBA,TBA,TBA,TBA,TBA,TBA,TBA,AW013162,"10 Gas Holder Place,","London,",  SE11 5BH,10 years.,Ryefield Board: MSDB-B1-9,"R459-MBS-BZ-08-CT-X-61184 - B184 - DCN18 Domestic Electrical Cert - Flat 124 - 10 Gas Holder Place, London, SE11 5BH.pdf"
Plot B.1-8-5,Plot B.1-8-5,Plot B.1-8-5,Plot B.1-8-5,Plot B.1-8-5,Plot B.1-8-5,TBA,TBA,TBA,TBA,TBA,TBA,TBA,TBA,TBA,AW013163,"10 Gas Holder Place,","London,",  SE11 5BH,10 years.,Ryefield Board: MSDB-B1-9,"R459-MBS-BZ-08-CT-X-61185 - B185 - DCN18 Domestic Electrical Cert - Flat 125 - 10 Gas Holder Place, London, SE11 5BH.pdf"
Plot B.1-8-6,Plot B.1-8-6,Plot B.1-8-6,Plot B.1-8-6,Plot B.1-8-6,Plot B.1-8-6,TBA,TBA,TBA,TBA,TBA,TBA,TBA,TBA,TBA,AW013164,"10 Gas Holder Place,","London,",  SE11 5BH,10 years.,Ryefield Board: MSDB-B1-9,"R459-MBS-BZ-08-CT-X-61186 - B186 - DCN18 Domestic Electrical Cert - Flat 126 - 10 Gas Holder Place, London, SE11 5BH.pdf"
Plot B.1-8-7,Plot B.1-8-7,Plot B.1-8-7,Plot B.1-8-7,Plot B.1-8-7,Plot B.1-8-7,TBA,TBA,TBA,TBA,TBA,TBA,TBA,TBA,TBA,AW013165,"10 Gas Holder Place,","London,",  SE11 5BH,10 years.,Ryefield Board: MSDB-B1-9,"R459-MBS-BZ-08-CT-X-61187 - B187 - DCN18 Domestic Electrical Cert - Flat 127 - 10 Gas Holder Place, London, SE11 5BH.pdf"
Plot B.1-8-8,Plot B.1-8-8,Plot B.1-8-8,Plot B.1-8-8,Plot B.1-8-8,Plot B.1-8-8,TBA,TBA,TBA,TBA,TBA,TBA,TBA,TBA,TBA,AW013166,"10 Gas Holder Place,","London,",  SE11 5BH,10 years.,Ryefield Board: MSDB-B1-9,"R459-MBS-BZ-08-CT-X-61188 - B188 - DCN18 Domestic Electrical Cert - Flat 128 - 10 Gas Holder Place, London, SE11 5BH.pdf"
Plot B.1-8-9,Plot B.1-8-9,Plot B.1-8-9,Plot B.1-8-9,Plot B.1-8-9,Plot B.1-8-9,TBA,TBA,TBA,TBA,TBA,TBA,TBA,TBA,TBA,AW013167,"10 Gas Holder Place,","London,",  SE11 5BH,10 years.,Ryefield Board: MSDB-B1-9,"R459-MBS-BZ-08-CT-X-61189 - B189 - DCN18 Domestic Electrical Cert - Flat 129 - 10 Gas Holder Place, London, SE11 5BH.pdf"
Plot B.1-8-10,Plot B.1-8-10,Plot B.1-8-10,Plot B.1-8-10,Plot B.1-8-10,Plot B.1-8-10,TBA,TBA,TBA,TBA,TBA,TBA,TBA,TBA,TBA,AW013284,"10 Gas Holder Place,","London,",  SE11 5BH,10 years.,Ryefield Board: MSDB-B1-9,"R459-MBS-BZ-08-CT-X-611810 - B1810 - DCN18 Domestic Electrical Cert - Flat 130 - 10 Gas Holder Place, London, SE11 5BH.pdf"
Plot B.1-9-1,Plot B.1-9-1,Plot B.1-9-1,Plot B.1-9-1,Plot B.1-9-1,Plot B.1-9-1,TBA,TBA,TBA,TBA,TBA,TBA,TBA,TBA,TBA,AW013168,"10 Gas Holder Place,","London,",  SE11 5BN,10 years.,Ryefield Board: MSDB-B1-9,"R459-MBS-BZ-09-CT-X-61191 - B191 - DCN18 Domestic Electrical Cert - Flat 131 - 10 Gas Holder Place, London, SE11 5BN.pdf"
Plot B.1-9-2,Plot B.1-9-2,Plot B.1-9-2,Plot B.1-9-2,Plot B.1-9-2,Plot B.1-9-2,TBA,TBA,TBA,TBA,TBA,TBA,TBA,TBA,TBA,AW013169,"10 Gas Holder Place,","London,",  SE11 5BN,10 years.,Ryefield Board: MSDB-B1-9,"R459-MBS-BZ-09-CT-X-61192 - B192 - DCN18 Domestic Electrical Cert - Flat 132 - 10 Gas Holder Place, London, SE11 5BN.pdf"
Plot B.1-9-3,Plot B.1-9-3,Plot B.1-9-3,Plot B.1-9-3,Plot B.1-9-3,Plot B.1-9-3,TBA,TBA,TBA,TBA,TBA,TBA,TBA,TBA,TBA,AW013170,"10 Gas Holder Place,","London,",  SE11 5BN,10 years.,Ryefield Board: MSDB-B1-9,"R459-MBS-BZ-09-CT-X-61193 - B193 - DCN18 Domestic Electrical Cert - Flat 133 - 10 Gas Holder Place, London, SE11 5BN.pdf"
Plot B.1-9-4,Plot B.1-9-4,Plot B.1-9-4,Plot B.1-9-4,Plot B.1-9-4,Plot B.1-9-4,TBA,TBA,TBA,TBA,TBA,TBA,TBA,TBA,TBA,AW013171,"10 Gas Holder Place,","London,",  SE11 5BN,10 years.,Ryefield Board: MSDB-B1-9,"R459-MBS-BZ-09-CT-X-61194 - B194 - DCN18 Domestic Electrical Cert - Flat 134 - 10 Gas Holder Place, London, SE11 5BN.pdf"
Plot B.1-9-5,Plot B.1-9-5,Plot B.1-9-5,Plot B.1-9-5,Plot B.1-9-5,Plot B.1-9-5,TBA,TBA,TBA,TBA,TBA,TBA,TBA,TBA,TBA,AW013172,"10 Gas Holder Place,","London,",  SE11 5BN,10 years.,Ryefield Board: MSDB-B1-9,"R459-MBS-BZ-09-CT-X-61195 - B195 - DCN18 Domestic Electrical Cert - Flat 135 - 10 Gas Holder Place, London, SE11 5BN.pdf"
Plot B.1-9-6,Plot B.1-9-6,Plot B.1-9-6,Plot B.1-9-6,Plot B.1-9-6,Plot B.1-9-6,TBA,TBA,TBA,TBA,TBA,TBA,TBA,TBA,TBA,AW013173,"10 Gas Holder Place,","London,",  SE11 5BN,10 years.,Ryefield Board: MSDB-B1-9,"R459-MBS-BZ-09-CT-X-61196 - B196 - DCN18 Domestic Electrical Cert - Flat 136 - 10 Gas Holder Place, London, SE11 5BN.pdf"
Plot B.1-9-7,Plot B.1-9-7,Plot B.1-9-7,Plot B.1-9-7,Plot B.1-9-7,Plot B.1-9-7,TBA,TBA,TBA,TBA,TBA,TBA,TBA,TBA,TBA,AW013174,"10 Gas Holder Place,","London,",  SE11 5BN,10 years.,Ryefield Board: MSDB-B1-9,"R459-MBS-BZ-09-CT-X-61197 - B197 - DCN18 Domestic Electrical Cert - Flat 137 - 10 Gas Holder Place, London, SE11 5BN.pdf"
Plot B.1-9-8,Plot B.1-9-8,Plot B.1-9-8,Plot B.1-9-8,Plot B.1-9-8,Plot B.1-9-8,TBA,TBA,TBA,TBA,TBA,TBA,TBA,TBA,TBA,AW013175,"10 Gas Holder Place,","London,",  SE11 5BN,10 years.,Ryefield Board: MSDB-B1-9,"R459-MBS-BZ-09-CT-X-61198 - B198 - DCN18 Domestic Electrical Cert - Flat 138 - 10 Gas Holder Place, London, SE11 5BN.pdf"
Plot B.1-9-9,Plot B.1-9-9,Plot B.1-9-9,Plot B.1-9-9,Plot B.1-9-9,Plot B.1-9-9,TBA,TBA,TBA,TBA,TBA,TBA,TBA,TBA,TBA,AW013200,"10 Gas Holder Place,","London,",  SE11 5BN,10 years.,Ryefield Board: MSDB-B1-9,"R459-MBS-BZ-09-CT-X-61199 - B199 - DCN18 Domestic Electrical Cert - Flat 139 - 10 Gas Holder Place, London, SE11 5BN.pdf"
Plot B.1-9-10,Plot B.1-9-10,Plot B.1-9-10,Plot B.1-9-10,Plot B.1-9-10,Plot B.1-9-10,TBA,TBA,TBA,TBA,TBA,TBA,TBA,TBA,TBA,AW013209,"10 Gas Holder Place,","London,",  SE11 5BN,10 years.,Ryefield Board: MSDB-B1-9,"R459-MBS-BZ-09-CT-X-611910 - B1910 - DCN18 Domestic Electrical Cert - Flat 140 - 10 Gas Holder Place, London, SE11 5BN.pdf"
Plot B.1-10-1,Plot B.1-10-1,Plot B.1-10-1,Plot B.1-10-1,Plot B.1-10-1,Plot B.1-10-1,TBA,TBA,TBA,TBA,TBA,TBA,TBA,TBA,TBA,AW013250,"10 Gas Holder Place,","London,",  SE11 5BN,10 years.,Ryefield Board: MSDB-B1-9,"R459-MBS-BZ-10-CT-X-611101 - B1101 - DCN18 Domestic Electrical Cert - Flat 141 - 10 Gas Holder Place, London, SE11 5BN.pdf"
Plot B.1-10-2,Plot B.1-10-2,Plot B.1-10-2,Plot B.1-10-2,Plot B.1-10-2,Plot B.1-10-2,TBA,TBA,TBA,TBA,TBA,TBA,TBA,TBA,TBA,AW013251,"10 Gas Holder Place,","London,",  SE11 5BN,10 years.,Ryefield Board: MSDB-B1-9,"R459-MBS-BZ-10-CT-X-611102 - B1102 - DCN18 Domestic Electrical Cert - Flat 142 - 10 Gas Holder Place, London, SE11 5BN.pdf"
Plot B.1-10-3,Plot B.1-10-3,Plot B.1-10-3,Plot B.1-10-3,Plot B.1-10-3,Plot B.1-10-3,TBA,TBA,TBA,TBA,TBA,TBA,TBA,TBA,TBA,AW013252,"10 Gas Holder Place,","London,",  SE11 5BN,10 years.,Ryefield Board: MSDB-B1-9,"R459-MBS-BZ-10-CT-X-611103 - B1103 - DCN18 Domestic Electrical Cert - Flat 143 - 10 Gas Holder Place, London, SE11 5BN.pdf"
Plot B.1-10-4,Plot B.1-10-4,Plot B.1-10-4,Plot B.1-10-4,Plot B.1-10-4,Plot B.1-10-4,TBA,TBA,TBA,TBA,TBA,TBA,TBA,TBA,TBA,AW013253,"10 Gas Holder Place,","London,",  SE11 5BN,10 years.,Ryefield Board: MSDB-B1-9,"R459-MBS-BZ-10-CT-X-611104 - B1104 - DCN18 Domestic Electrical Cert - Flat 144 - 10 Gas Holder Place, London, SE11 5BN.pdf"
Plot B.1-11-1,Plot B.1-11-1,Plot B.1-11-1,Plot B.1-11-1,Plot B.1-11-1,Plot B.1-11-1,TBA,TBA,TBA,TBA,TBA,TBA,TBA,TBA,TBA,AW013254,"10 Gas Holder Place,","London,",  SE11 5BN,10 years.,Ryefield Board: MSDB-B1-9,"R459-MBS-BZ-11-CT-X-611111 - B1111 - DCN18 Domestic Electrical Cert - Flat 145 - 10 Gas Holder Place, London, SE11 5BN.pdf"
Plot B.1-11-2,Plot B.1-11-2,Plot B.1-11-2,Plot B.1-11-2,Plot B.1-11-2,Plot B.1-11-2,TBA,TBA,TBA,TBA,TBA,TBA,TBA,TBA,TBA,AW013255,"10 Gas Holder Place,","London,",  SE11 5BN,10 years.,Ryefield Board: MSDB-B1-9,"R459-MBS-BZ-11-CT-X-611112 - B1112 - DCN18 Domestic Electrical Cert - Flat 146 - 10 Gas Holder Place, London, SE11 5BN.pdf"
Plot B.1-11-3,Plot B.1-11-3,Plot B.1-11-3,Plot B.1-11-3,Plot B.1-11-3,Plot B.1-11-3,TBA,TBA,TBA,TBA,TBA,TBA,TBA,TBA,TBA,AW013256,"10 Gas Holder Place,","London,",  SE11 5BN,10 years.,Ryefield Board: MSDB-B1-9,"R459-MBS-BZ-11-CT-X-611113 - B1113 - DCN18 Domestic Electrical Cert - Flat 147 - 10 Gas Holder Place, London, SE11 5BN.pdf"
Plot B.1-11-4,Plot B.1-11-4,Plot B.1-11-4,Plot B.1-11-4,Plot B.1-11-4,Plot B.1-11-4,TBA,TBA,TBA,TBA,TBA,TBA,TBA,TBA,TBA,AW013257,"10 Gas Holder Place,","London,",  SE11 5BN,10 years.,Ryefield Board: MSDB-B1-9,"R459-MBS-BZ-11-CT-X-611114 - B1114 - DCN18 Domestic Electrical Cert - Flat 148 - 10 Gas Holder Place, London, SE11 5BN.pdf"
Plot B.1-12-1,Plot B.1-12-1,Plot B.1-12-1,Plot B.1-12-1,Plot B.1-12-1,Plot B.1-12-1,TBA,TBA,TBA,TBA,TBA,TBA,TBA,TBA,TBA,AW013258,"10 Gas Holder Place,","London,",  SE11 5BN,10 years.,Ryefield Board: MSDB-B1-10,"R459-MBS-BZ-12-CT-X-611121 - B1121 - DCN18 Domestic Electrical Cert - Flat 149 - 10 Gas Holder Place, London, SE11 5BN.pdf"
Plot B.1-12-2,Plot B.1-12-2,Plot B.1-12-2,Plot B.1-12-2,Plot B.1-12-2,Plot B.1-12-2,TBA,TBA,TBA,TBA,TBA,TBA,TBA,TBA,TBA,AW013259,"10 Gas Holder Place,","London,",  SE11 5BN,10 years.,Ryefield Board: MSDB-B1-10,"R459-MBS-BZ-12-CT-X-611122 - B1122 - DCN18 Domestic Electrical Cert - Flat 150 - 10 Gas Holder Place, London, SE11 5BN.pdf"
Plot B.1-12-3,Plot B.1-12-3,Plot B.1-12-3,Plot B.1-12-3,Plot B.1-12-3,Plot B.1-12-3,TBA,TBA,TBA,TBA,TBA,TBA,TBA,TBA,TBA,AW013260,"10 Gas Holder Place,","London,",  SE11 5BN,10 years.,Ryefield Board: MSDB-B1-10,"R459-MBS-BZ-12-CT-X-611123 - B1123 - DCN18 Domestic Electrical Cert - Flat 151 - 10 Gas Holder Place, London, SE11 5BN.pdf"
Plot B.1-12-4,Plot B.1-12-4,Plot B.1-12-4,Plot B.1-12-4,Plot B.1-12-4,Plot B.1-12-4,TBA,TBA,TBA,TBA,TBA,TBA,TBA,TBA,TBA,AW013261,"10 Gas Holder Place,","London,",  SE11 5BN,10 years.,Ryefield Board: MSDB-B1-10,"R459-MBS-BZ-12-CT-X-611124 - B1124 - DCN18 Domestic Electrical Cert - Flat 152 - 10 Gas Holder Place, London, SE11 5BN.pdf"
Plot B.1-13-1,Plot B.1-13-1,Plot B.1-13-1,Plot B.1-13-1,Plot B.1-13-1,Plot B.1-13-1,TBA,TBA,TBA,TBA,TBA,TBA,TBA,TBA,TBA,AW013262,"10 Gas Holder Place,","London,",  SE11 5BN,10 years.,Ryefield Board: MSDB-B1-10,"R459-MBS-BZ-13-CT-X-611131 - B1131 - DCN18 Domestic Electrical Cert - Flat 153 - 10 Gas Holder Place, London, SE11 5BN.pdf"
Plot B.1-13-2,Plot B.1-13-2,Plot B.1-13-2,Plot B.1-13-2,Plot B.1-13-2,Plot B.1-13-2,TBA,TBA,TBA,TBA,TBA,TBA,TBA,TBA,TBA,AW013263,"10 Gas Holder Place,","London,",  SE11 5BN,10 years.,Ryefield Board: MSDB-B1-10,"R459-MBS-BZ-13-CT-X-611132 - B1132 - DCN18 Domestic Electrical Cert - Flat 154 - 10 Gas Holder Place, London, SE11 5BN.pdf"
Plot B.1-13-3,Plot B.1-13-3,Plot B.1-13-3,Plot B.1-13-3,Plot B.1-13-3,Plot B.1-13-3,TBA,TBA,TBA,TBA,TBA,TBA,TBA,TBA,TBA,AW013264,"10 Gas Holder Place,","London,",  SE11 5BN,10 years.,Ryefield Board: MSDB-B1-10,"R459-MBS-BZ-13-CT-X-611133 - B1133 - DCN18 Domestic Electrical Cert - Flat 155 - 10 Gas Holder Place, London, SE11 5BN.pdf"
Plot B.1-13-4,Plot B.1-13-4,Plot B.1-13-4,Plot B.1-13-4,Plot B.1-13-4,Plot B.1-13-4,TBA,TBA,TBA,TBA,TBA,TBA,TBA,TBA,TBA,AW013265,"10 Gas Holder Place,","London,",  SE11 5BN,10 years.,Ryefield Board: MSDB-B1-10,"R459-MBS-BZ-13-CT-X-611134 - B1134 - DCN18 Domestic Electrical Cert - Flat 156 - 10 Gas Holder Place, London, SE11 5BN.pdf"
Plot B.1-14-1,Plot B.1-14-1,Plot B.1-14-1,Plot B.1-14-1,Plot B.1-14-1,Plot B.1-14-1,TBA,TBA,TBA,TBA,TBA,TBA,TBA,TBA,TBA,AW013266,"10 Gas Holder Place,","London,",  SE11 5BN,10 years.,Ryefield Board: MSDB-B1-10,"R459-MBS-BZ-14-CT-X-611141 - B1141 - DCN18 Domestic Electrical Cert - Flat 157 - 10 Gas Holder Place, London, SE11 5BN.pdf"
Plot B.1-14-2,Plot B.1-14-2,Plot B.1-14-2,Plot B.1-14-2,Plot B.1-14-2,Plot B.1-14-2,TBA,TBA,TBA,TBA,TBA,TBA,TBA,TBA,TBA,AW013267,"10 Gas Holder Place,","London,",  SE11 5BN,10 years.,Ryefield Board: MSDB-B1-10,"R459-MBS-BZ-14-CT-X-611142 - B1142 - DCN18 Domestic Electrical Cert - Flat 158 - 10 Gas Holder Place, London, SE11 5BN.pdf"
Plot B.1-14-3,Plot B.1-14-3,Plot B.1-14-3,Plot B.1-14-3,Plot B.1-14-3,Plot B.1-14-3,TBA,TBA,TBA,TBA,TBA,TBA,TBA,TBA,TBA,AW013268,"10 Gas Holder Place,","London,",  SE11 5BN,10 years.,Ryefield Board: MSDB-B1-10,"R459-MBS-BZ-14-CT-X-611143 - B1143 - DCN18 Domestic Electrical Cert - Flat 159 - 10 Gas Holder Place, London, SE11 5BN.pdf"
Plot B.1-14-4,Plot B.1-14-4,Plot B.1-14-4,Plot B.1-14-4,Plot B.1-14-4,Plot B.1-14-4,TBA,TBA,TBA,TBA,TBA,TBA,TBA,TBA,TBA,AW013269,"10 Gas Holder Place,","London,",  SE11 5BN,10 years.,Ryefield Board: MSDB-B1-10,"R459-MBS-BZ-14-CT-X-611144 - B1144 - DCN18 Domestic Electrical Cert - Flat 160 - 10 Gas Holder Place, London, SE11 5BN.pdf"
Plot B.1-15-1,Plot B.1-15-1,Plot B.1-15-1,Plot B.1-15-1,Plot B.1-15-1,Plot B.1-15-1,TBA,TBA,TBA,TBA,TBA,TBA,TBA,TBA,TBA,AW013270,"10 Gas Holder Place,","London,",  SE11 5BN,10 years.,Ryefield Board: MSDB-B1-10,"R459-MBS-BZ-15-CT-X-611151 - B1151 - DCN18 Domestic Electrical Cert - Flat 161 - 10 Gas Holder Place, London, SE11 5BN.pdf"
Plot B.1-15-2,Plot B.1-15-2,Plot B.1-15-2,Plot B.1-15-2,Plot B.1-15-2,Plot B.1-15-2,TBA,TBA,TBA,TBA,TBA,TBA,TBA,TBA,TBA,AW013271,"10 Gas Holder Place,","London,",  SE11 5BN,10 years.,Ryefield Board: MSDB-B1-10,"R459-MBS-BZ-15-CT-X-611152 - B1152 - DCN18 Domestic Electrical Cert - Flat 162 - 10 Gas Holder Place, London, SE11 5BN.pdf"
Plot B.1-15-3,Plot B.1-15-3,Plot B.1-15-3,Plot B.1-15-3,Plot B.1-15-3,Plot B.1-15-3,TBA,TBA,TBA,TBA,TBA,TBA,TBA,TBA,TBA,AW013272,"10 Gas Holder Place,","London,",  SE11 5BN,10 years.,Ryefield Board: MSDB-B1-10,"R459-MBS-BZ-15-CT-X-611153 - B1153 - DCN18 Domestic Electrical Cert - Flat 163 - 10 Gas Holder Place, London, SE11 5BN.pdf"
Plot B.1-16-1,Plot B.1-16-1,Plot B.1-16-1,Plot B.1-16-1,Plot B.1-16-1,Plot B.1-16-1,TBA,TBA,TBA,TBA,TBA,TBA,TBA,TBA,TBA,AW013273,"10 Gas Holder Place,","London,",  SE11 5BN,10 years.,Ryefield Board: MSDB-B1-10,"R459-MBS-BZ-16-CT-X-611161 - B1161 - DCN18 Domestic Electrical Cert - Flat 164 - 10 Gas Holder Place, London, SE11 5BN.pdf"
Plot B.1-16-2,Plot B.1-16-2,Plot B.1-16-2,Plot B.1-16-2,Plot B.1-16-2,Plot B.1-16-2,TBA,TBA,TBA,TBA,TBA,TBA,TBA,TBA,TBA,AW013274,"10 Gas Holder Place,","London,",  SE11 5BN,10 years.,Ryefield Board: MSDB-B1-10,"R459-MBS-BZ-16-CT-X-611162 - B1162 - DCN18 Domestic Electrical Cert - Flat 165 - 10 Gas Holder Place, London, SE11 5BN.pdf"
Plot B.1-16-3,Plot B.1-16-3,Plot B.1-16-3,Plot B.1-16-3,Plot B.1-16-3,Plot B.1-16-3,TBA,TBA,TBA,TBA,TBA,TBA,TBA,TBA,TBA,AW013275,"10 Gas Holder Place,","London,",  SE11 5BN,10 years.,Ryefield Board: MSDB-B1-10,"R459-MBS-BZ-16-CT-X-611163 - B1163 - DCN18 Domestic Electrical Cert - Flat 166 - 10 Gas Holder Place, London, SE11 5BN.pdf"
Plot B.1-17-1,Plot B.1-17-1,Plot B.1-17-1,Plot B.1-17-1,Plot B.1-17-1,Plot B.1-17-1,TBA,TBA,TBA,TBA,TBA,TBA,TBA,TBA,TBA,AW013276,"10 Gas Holder Place,","London,",  SE11 5BN,10 years.,Ryefield Board: MSDB-B1-10,"R459-MBS-BZ-17-CT-X-611171 - B1171 - DCN18 Domestic Electrical Cert - Flat 167 - 10 Gas Holder Place, London, SE11 5BN.pdf"
Plot B.1-17-2,Plot B.1-17-2,Plot B.1-17-2,Plot B.1-17-2,Plot B.1-17-2,Plot B.1-17-2,TBA,TBA,TBA,TBA,TBA,TBA,TBA,TBA,TBA,AW013277,"10 Gas Holder Place,","London,",  SE11 5BN,10 years.,Ryefield Board: MSDB-B1-10,"R459-MBS-BZ-17-CT-X-611172 - B1172 - DCN18 Domestic Electrical Cert - Flat 168 - 10 Gas Holder Place, London, SE11 5BN.pdf"
Plot B.1-17-3,Plot B.1-17-3,Plot B.1-17-3,Plot B.1-17-3,Plot B.1-17-3,Plot B.1-17-3,TBA,TBA,TBA,TBA,TBA,TBA,TBA,TBA,TBA,AW013278,"10 Gas Holder Place,","London,",  SE11 5BN,10 years.,Ryefield Board: MSDB-B1-10,"R459-MBS-BZ-17-CT-X-611173 - B1173 - DCN18 Domestic Electrical Cert - Flat 169 - 10 Gas Holder Place, London, SE11 5BN.pdf"
Plot B.1-18-1,Plot B.1-18-1,Plot B.1-18-1,Plot B.1-18-1,Plot B.1-18-1,Plot B.1-18-1,TBA,TBA,TBA,TBA,TBA,TBA,TBA,TBA,TBA,AW169925,"10 Gas Holder Place,","London,",  SE11 5BN,10 years.,Ryefield Board: MSDB-B1-10,"R459-MBS-BZ-18-CT-X-611181 - B1181 - DCN18 Domestic Electrical Cert - Flat 170 - 10 Gas Holder Place, London, SE11 5BN.pdf"
Plot B.1-18-2,Plot B.1-18-2,Plot B.1-18-2,Plot B.1-18-2,Plot B.1-18-2,Plot B.1-18-2,TBA,TBA,TBA,TBA,TBA,TBA,TBA,TBA,TBA,AW169926,"10 Gas Holder Place,","London,",  SE11 5BN,10 years.,Ryefield Board: MSDB-B1-10,"R459-MBS-BZ-18-CT-X-611182 - B1182 - DCN18 Domestic Electrical Cert - Flat 171 - 10 Gas Holder Place, London, SE11 5BN.pdf"
Plot B.1-18-3,Plot B.1-18-3,Plot B.1-18-3,Plot B.1-18-3,Plot B.1-18-3,Plot B.1-18-3,TBA,TBA,TBA,TBA,TBA,TBA,TBA,TBA,TBA,AW169927,"10 Gas Holder Place,","London,",  SE11 5BN,10 years.,Ryefield Board: MSDB-B1-10,"R459-MBS-BZ-18-CT-X-611183 - B1183 - DCN18 Domestic Electrical Cert - Flat 172 - 10 Gas Holder Place, London, SE11 5BN.pdf"
Plot B.2-0-1,Plot B.2-0-1,Plot B.2-0-1,Plot B.2-0-1,Plot B.2-0-1,Plot B.2-0-1,TBA,TBA,TBA,TBA,TBA,TBA,TBA,TBA,TBA,AW169920,"9 Woodall Way,","London,",  SE11 5BQ,10 years.,Ryefield Board: MSDB-B2-1,"R459-MBS-BZ-00-CT-X-61201 - B201 - DCN18 Domestic Electrical Cert - Flat 1 - 9 Woodall Way, London, SE11 5BQ.pdf"
Plot B.2-0-2,Plot B.2-0-2,Plot B.2-0-2,Plot B.2-0-2,Plot B.2-0-2,Plot B.2-0-2,TBA,TBA,TBA,TBA,TBA,TBA,TBA,TBA,TBA,AW169921,"7 Woodall Way,","London,",  SE11 5BP,10 years.,Ryefield Board: MSDB-B2-1,"R459-MBS-BZ-00-CT-X-61202 - B202 - DCN18 Domestic Electrical Cert - 7 Woodall Way, London, SE11 5BP.pdf"
Plot B.2-0-3,Plot B.2-0-3,Plot B.2-0-3,Plot B.2-0-3,Plot B.2-0-3,Plot B.2-0-3,TBA,TBA,TBA,TBA,TBA,TBA,TBA,TBA,TBA,AW169922,"5 Woodall Way,","London,",  SE11 5BP,10 years.,Ryefield Board: MSDB-B2-1,"R459-MBS-BZ-00-CT-X-61203 - B203 - DCN18 Domestic Electrical Cert - 5 Woodall Way, London, SE11 5BP.pdf"
Plot B.2-0-4,Plot B.2-0-4,Plot B.2-0-4,Plot B.2-0-4,Plot B.2-0-4,Plot B.2-0-4,TBA,TBA,TBA,TBA,TBA,TBA,TBA,TBA,TBA,AW169923,"3 Woodall Way,","London,",  SE11 5BP,10 years.,Ryefield Board: MSDB-B2-1,"R459-MBS-BZ-00-CT-X-61204 - B204 - DCN18 Domestic Electrical Cert - 3 Woodall Way, London, SE11 5BP.pdf"
Plot B.2-0-5,Plot B.2-0-5,Plot B.2-0-5,Plot B.2-0-5,Plot B.2-0-5,Plot B.2-0-5,TBA,TBA,TBA,TBA,TBA,TBA,TBA,TBA,TBA,AW169924,"1 Woodall Way,","London,",  SE11 5BP,10 years.,Ryefield Board: MSDB-B2-1,"R459-MBS-BZ-00-CT-X-61205 - B205 - DCN18 Domestic Electrical Cert - 1 Woodall Way, London, SE11 5BP.pdf"
Plot B.2-1-1,Plot B.2-1-1,Plot B.2-1-1,Plot B.2-1-1,Plot B.2-1-1,Plot B.2-1-1,TBA,TBA,TBA,TBA,TBA,TBA,TBA,TBA,TBA,AW013176,"10 Gas Holder Place,","London,",  SE11 5BF,10 years.,Ryefield Board: MSDB-B2-1,"R459-MBS-BZ-01-CT-X-61211 - B211 - DCN18 Domestic Electrical Cert - Flat 21 - 10 Gas Holder Place, London, SE11 5BF.pdf"
Plot B.2-1-2,Plot B.2-1-2,Plot B.2-1-2,Plot B.2-1-2,Plot B.2-1-2,Plot B.2-1-2,TBA,TBA,TBA,TBA,TBA,TBA,TBA,TBA,TBA,AW013177,"10 Gas Holder Place,","London,",  SE11 5BF,10 years.,Ryefield Board: MSDB-B2-1,"R459-MBS-BZ-01-CT-X-61212 - B212 - DCN18 Domestic Electrical Cert - Flat 22 - 10 Gas Holder Place, London, SE11 5BF.pdf"
Plot B.2-1-3,Plot B.2-1-3,Plot B.2-1-3,Plot B.2-1-3,Plot B.2-1-3,Plot B.2-1-3,TBA,TBA,TBA,TBA,TBA,TBA,TBA,TBA,TBA,AW013178,"10 Gas Holder Place,","London,",  SE11 5BF,10 years.,Ryefield Board: MSDB-B2-1,"R459-MBS-BZ-01-CT-X-61213 - B213 - DCN18 Domestic Electrical Cert - Flat 12 - 10 Gas Holder Place, London, SE11 5BF.pdf"
Plot B.2-1-4,Plot B.2-1-4,Plot B.2-1-4,Plot B.2-1-4,Plot B.2-1-4,Plot B.2-1-4,TBA,TBA,TBA,TBA,TBA,TBA,TBA,TBA,TBA,AW013179,"10 Gas Holder Place,","London,",  SE11 5BF,10 years.,Ryefield Board: MSDB-B2-1,"R459-MBS-BZ-01-CT-X-61214 - B214 - DCN18 Domestic Electrical Cert - Flat 13 - 10 Gas Holder Place, London, SE11 5BF.pdf"
Plot B.2-1-5,Plot B.2-1-5,Plot B.2-1-5,Plot B.2-1-5,Plot B.2-1-5,Plot B.2-1-5,TBA,TBA,TBA,TBA,TBA,TBA,TBA,TBA,TBA,AW013180,"10 Gas Holder Place,","London,",  SE11 5BF,10 years.,Ryefield Board: MSDB-B2-1,"R459-MBS-BZ-01-CT-X-61215 - B215 - DCN18 Domestic Electrical Cert - Flat 14 - 10 Gas Holder Place, London, SE11 5BF.pdf"
Plot B.2-1-6,Plot B.2-1-6,Plot B.2-1-6,Plot B.2-1-6,Plot B.2-1-6,Plot B.2-1-6,TBA,TBA,TBA,TBA,TBA,TBA,TBA,TBA,TBA,AW013181,"10 Gas Holder Place,","London,",  SE11 5BF,10 years.,Ryefield Board: MSDB-B2-1,"R459-MBS-BZ-01-CT-X-61216 - B216 - DCN18 Domestic Electrical Cert - Flat 15 - 10 Gas Holder Place, London, SE11 5BF.pdf"
Plot B.2-1-7,Plot B.2-1-7,Plot B.2-1-7,Plot B.2-1-7,Plot B.2-1-7,Plot B.2-1-7,TBA,TBA,TBA,TBA,TBA,TBA,TBA,TBA,TBA,AW013182,"10 Gas Holder Place,","London,",  SE11 5BF,10 years.,Ryefield Board: MSDB-B2-1,"R459-MBS-BZ-01-CT-X-61217 - B217 - DCN18 Domestic Electrical Cert - Flat 16 - 10 Gas Holder Place, London, SE11 5BF.pdf"
Plot B.2-1-8,Plot B.2-1-8,Plot B.2-1-8,Plot B.2-1-8,Plot B.2-1-8,Plot B.2-1-8,TBA,TBA,TBA,TBA,TBA,TBA,TBA,TBA,TBA,AW013183,"10 Gas Holder Place,","London,",  SE11 5BF,10 years.,Ryefield Board: MSDB-B2-1,"R459-MBS-BZ-01-CT-X-61218 - B218 - DCN18 Domestic Electrical Cert - Flat 17 - 10 Gas Holder Place, London, SE11 5BF.pdf"
Plot B.2-1-9,Plot B.2-1-9,Plot B.2-1-9,Plot B.2-1-9,Plot B.2-1-9,Plot B.2-1-9,TBA,TBA,TBA,TBA,TBA,TBA,TBA,TBA,TBA,AW013184,"10 Gas Holder Place,","London,",  SE11 5BF,10 years.,Ryefield Board: MSDB-B2-1,"R459-MBS-BZ-01-CT-X-61219 - B219 - DCN18 Domestic Electrical Cert - Flat 18 - 10 Gas Holder Place, London, SE11 5BF.pdf"
Plot B.2-1-10,Plot B.2-1-10,Plot B.2-1-10,Plot B.2-1-10,Plot B.2-1-10,Plot B.2-1-10,TBA,TBA,TBA,TBA,TBA,TBA,TBA,TBA,TBA,AW013285,"10 Gas Holder Place,","London,",  SE11 5BF,10 years.,Ryefield Board: MSDB-B2-1,"R459-MBS-BZ-01-CT-X-612110 - B2110 - DCN18 Domestic Electrical Cert - Flat 19 - 10 Gas Holder Place, London, SE11 5BF.pdf"
Plot B.2-1-11,Plot B.2-1-11,Plot B.2-1-11,Plot B.2-1-11,Plot B.2-1-11,Plot B.2-1-11,TBA,TBA,TBA,TBA,TBA,TBA,TBA,TBA,TBA,AW013218,"10 Gas Holder Place,","London,",  SE11 5BF,10 years.,Ryefield Board: MSDB-B2-1,"R459-MBS-BZ-01-CT-X-612111 - B2111 - DCN18 Domestic Electrical Cert - Flat 20 - 10 Gas Holder Place, London, SE11 5BF.pdf"
Plot B.2-2-1,Plot B.2-2-1,Plot B.2-2-1,Plot B.2-2-1,Plot B.2-2-1,Plot B.2-2-1,TBA,TBA,TBA,TBA,TBA,TBA,TBA,TBA,TBA,AW013185,"10 Gas Holder Place,","London,",  SE11 5BF,10 years.,Ryefield Board: MSDB-B2-1,"R459-MBS-BZ-02-CT-X-61221 - B221 - DCN18 Domestic Electrical Cert - Flat 43 - 10 Gas Holder Place, London, SE11 5BF.pdf"
Plot B.2-2-2,Plot B.2-2-2,Plot B.2-2-2,Plot B.2-2-2,Plot B.2-2-2,Plot B.2-2-2,TBA,TBA,TBA,TBA,TBA,TBA,TBA,TBA,TBA,AW013186,"10 Gas Holder Place,","London,",  SE11 5BF,10 years.,Ryefield Board: MSDB-B2-1,"R459-MBS-BZ-02-CT-X-61222 - B222 - DCN18 Domestic Electrical Cert - Flat 44 - 10 Gas Holder Place, London, SE11 5BF.pdf"
Plot B.2-2-3,Plot B.2-2-3,Plot B.2-2-3,Plot B.2-2-3,Plot B.2-2-3,Plot B.2-2-3,TBA,TBA,TBA,TBA,TBA,TBA,TBA,TBA,TBA,AW013187,"10 Gas Holder Place,","London,",  SE11 5BF,10 years.,Ryefield Board: MSDB-B2-1,"R459-MBS-BZ-02-CT-X-61223 - B223 - DCN18 Domestic Electrical Cert - Flat 34 - 10 Gas Holder Place, London, SE11 5BF.pdf"
Plot B.2-2-4,Plot B.2-2-4,Plot B.2-2-4,Plot B.2-2-4,Plot B.2-2-4,Plot B.2-2-4,TBA,TBA,TBA,TBA,TBA,TBA,TBA,TBA,TBA,AW013188,"10 Gas Holder Place,","London,",  SE11 5BF,10 years.,Ryefield Board: MSDB-B2-1,"R459-MBS-BZ-02-CT-X-61224 - B224 - DCN18 Domestic Electrical Cert - Flat 35 - 10 Gas Holder Place, London, SE11 5BF.pdf"
Plot B.2-2-5,Plot B.2-2-5,Plot B.2-2-5,Plot B.2-2-5,Plot B.2-2-5,Plot B.2-2-5,TBA,TBA,TBA,TBA,TBA,TBA,TBA,TBA,TBA,AW013189,"10 Gas Holder Place,","London,",  SE11 5BF,10 years.,Ryefield Board: MSDB-B2-1,"R459-MBS-BZ-02-CT-X-61225 - B225 - DCN18 Domestic Electrical Cert - Flat 36 - 10 Gas Holder Place, London, SE11 5BF.pdf"
Plot B.2-2-6,Plot B.2-2-6,Plot B.2-2-6,Plot B.2-2-6,Plot B.2-2-6,Plot B.2-2-6,TBA,TBA,TBA,TBA,TBA,TBA,TBA,TBA,TBA,AW013190,"10 Gas Holder Place,","London,",  SE11 5BF,10 years.,Ryefield Board: MSDB-B2-1,"R459-MBS-BZ-02-CT-X-61226 - B226 - DCN18 Domestic Electrical Cert - Flat 37 - 10 Gas Holder Place, London, SE11 5BF.pdf"
Plot B.2-2-7,Plot B.2-2-7,Plot B.2-2-7,Plot B.2-2-7,Plot B.2-2-7,Plot B.2-2-7,TBA,TBA,TBA,TBA,TBA,TBA,TBA,TBA,TBA,AW013191,"10 Gas Holder Place,","London,",  SE11 5BF,10 years.,Ryefield Board: MSDB-B2-1,"R459-MBS-BZ-02-CT-X-61227 - B227 - DCN18 Domestic Electrical Cert - Flat 38 - 10 Gas Holder Place, London, SE11 5BF.pdf"
Plot B.2-2-8,Plot B.2-2-8,Plot B.2-2-8,Plot B.2-2-8,Plot B.2-2-8,Plot B.2-2-8,TBA,TBA,TBA,TBA,TBA,TBA,TBA,TBA,TBA,AW013192,"10 Gas Holder Place,","London,",  SE11 5BF,10 years.,Ryefield Board: MSDB-B2-1,"R459-MBS-BZ-02-CT-X-61228 - B228 - DCN18 Domestic Electrical Cert - Flat 39 - 10 Gas Holder Place, London, SE11 5BF.pdf"
Plot B.2-2-9,Plot B.2-2-9,Plot B.2-2-9,Plot B.2-2-9,Plot B.2-2-9,Plot B.2-2-9,TBA,TBA,TBA,TBA,TBA,TBA,TBA,TBA,TBA,AW013193,"10 Gas Holder Place,","London,",  SE11 5BF,10 years.,Ryefield Board: MSDB-B2-1,"R459-MBS-BZ-02-CT-X-61229 - B229 - DCN18 Domestic Electrical Cert - Flat 40 - 10 Gas Holder Place, London, SE11 5BF.pdf"
Plot B.2-2-10,Plot B.2-2-10,Plot B.2-2-10,Plot B.2-2-10,Plot B.2-2-10,Plot B.2-2-10,TBA,TBA,TBA,TBA,TBA,TBA,TBA,TBA,TBA,AW013288,"10 Gas Holder Place,","London,",  SE11 5BF,10 years.,Ryefield Board: MSDB-B2-1,"R459-MBS-BZ-02-CT-X-612210 - B2210 - DCN18 Domestic Electrical Cert - Flat 41 - 10 Gas Holder Place, London, SE11 5BF.pdf"
Plot B.2-2-11,Plot B.2-2-11,Plot B.2-2-11,Plot B.2-2-11,Plot B.2-2-11,Plot B.2-2-11,TBA,TBA,TBA,TBA,TBA,TBA,TBA,TBA,TBA,AW013289,"10 Gas Holder Place,","London,",  SE11 5BF,10 years.,Ryefield Board: MSDB-B2-1,"R459-MBS-BZ-02-CT-X-612211 - B2211 - DCN18 Domestic Electrical Cert - Flat 42 - 10 Gas Holder Place, London, SE11 5BF.pdf"
Plot B.2-3-1,Plot B.2-3-1,Plot B.2-3-1,Plot B.2-3-1,Plot B.2-3-1,Plot B.2-3-1,TBA,TBA,TBA,TBA,TBA,TBA,TBA,TBA,TBA,AW013194,"10 Gas Holder Place,","London,",  SE11 5BF,10 years.,Ryefield Board: MSDB-B2-3,"R459-MBS-BZ-03-CT-X-61231 - B231 - DCN18 Domestic Electrical Cert - Flat 64 - 10 Gas Holder Place, London, SE11 5BF.pdf"
Plot B.2-3-2,Plot B.2-3-2,Plot B.2-3-2,Plot B.2-3-2,Plot B.2-3-2,Plot B.2-3-2,TBA,TBA,TBA,TBA,TBA,TBA,TBA,TBA,TBA,AW013195,"10 Gas Holder Place,","London,",  SE11 5BF,10 years.,Ryefield Board: MSDB-B2-3,"R459-MBS-BZ-03-CT-X-61232 - B232 - DCN18 Domestic Electrical Cert - Flat 65 - 10 Gas Holder Place, London, SE11 5BF.pdf"
Plot B.2-3-3,Plot B.2-3-3,Plot B.2-3-3,Plot B.2-3-3,Plot B.2-3-3,Plot B.2-3-3,TBA,TBA,TBA,TBA,TBA,TBA,TBA,TBA,TBA,AW013196,"10 Gas Holder Place,","London,",  SE11 5BF,10 years.,Ryefield Board: MSDB-B2-3,"R459-MBS-BZ-03-CT-X-61233 - B233 - DCN18 Domestic Electrical Cert - Flat 56 - 10 Gas Holder Place, London, SE11 5BF.pdf"
Plot B.2-3-4,Plot B.2-3-4,Plot B.2-3-4,Plot B.2-3-4,Plot B.2-3-4,Plot B.2-3-4,TBA,TBA,TBA,TBA,TBA,TBA,TBA,TBA,TBA,AW013197,"10 Gas Holder Place,","London,",  SE11 5BF,10 years.,Ryefield Board: MSDB-B2-3,"R459-MBS-BZ-03-CT-X-61234 - B234 - DCN18 Domestic Electrical Cert - Flat 57 - 10 Gas Holder Place, London, SE11 5BF.pdf"
Plot B.2-3-5,Plot B.2-3-5,Plot B.2-3-5,Plot B.2-3-5,Plot B.2-3-5,Plot B.2-3-5,TBA,TBA,TBA,TBA,TBA,TBA,TBA,TBA,TBA,AW013198,"10 Gas Holder Place,","London,",  SE11 5BF,10 years.,Ryefield Board: MSDB-B2-3,"R459-MBS-BZ-03-CT-X-61235 - B235 - DCN18 Domestic Electrical Cert - Flat 58 - 10 Gas Holder Place, London, SE11 5BF.pdf"
Plot B.2-3-6,Plot B.2-3-6,Plot B.2-3-6,Plot B.2-3-6,Plot B.2-3-6,Plot B.2-3-6,TBA,TBA,TBA,TBA,TBA,TBA,TBA,TBA,TBA,AW013199,"10 Gas Holder Place,","London,",  SE11 5BF,10 years.,Ryefield Board: MSDB-B2-3,"R459-MBS-BZ-03-CT-X-61236 - B236 - DCN18 Domestic Electrical Cert - Flat 59 - 10 Gas Holder Place, London, SE11 5BF.pdf"
Plot B.2-3-8,Plot B.2-3-8,Plot B.2-3-8,Plot B.2-3-8,Plot B.2-3-8,Plot B.2-3-8,TBA,TBA,TBA,TBA,TBA,TBA,TBA,TBA,TBA,AW013201,"10 Gas Holder Place,","London,",  SE11 5BF,10 years.,Ryefield Board: MSDB-B2-3,"R459-MBS-BZ-03-CT-X-61238 - B238 - DCN18 Domestic Electrical Cert - Flat 60 - 10 Gas Holder Place, London, SE11 5BF.pdf"
Plot B.2-3-9,Plot B.2-3-9,Plot B.2-3-9,Plot B.2-3-9,Plot B.2-3-9,Plot B.2-3-9,TBA,TBA,TBA,TBA,TBA,TBA,TBA,TBA,TBA,AW013202,"10 Gas Holder Place,","London,",  SE11 5BF,10 years.,Ryefield Board: MSDB-B2-3,"R459-MBS-BZ-03-CT-X-61239 - B239 - DCN18 Domestic Electrical Cert - Flat 61 - 10 Gas Holder Place, London, SE11 5BF.pdf"
Plot B.2-3-10,Plot B.2-3-10,Plot B.2-3-10,Plot B.2-3-10,Plot B.2-3-10,Plot B.2-3-10,TBA,TBA,TBA,TBA,TBA,TBA,TBA,TBA,TBA,AW013290,"10 Gas Holder Place,","London,",  SE11 5BF,10 years.,Ryefield Board: MSDB-B2-3,"R459-MBS-BZ-03-CT-X-612310 - B2310 - DCN18 Domestic Electrical Cert - Flat 62 - 10 Gas Holder Place, London, SE11 5BF.pdf"
Plot B.2-3-11,Plot B.2-3-11,Plot B.2-3-11,Plot B.2-3-11,Plot B.2-3-11,Plot B.2-3-11,TBA,TBA,TBA,TBA,TBA,TBA,TBA,TBA,TBA,AW013291,"10 Gas Holder Place,","London,",  SE11 5BF,10 years.,Ryefield Board: MSDB-B2-3,"R459-MBS-BZ-03-CT-X-612311 - B2311 - DCN18 Domestic Electrical Cert - Flat 63 - 10 Gas Holder Place, London, SE11 5BF.pdf"
Plot B.2-4-1,Plot B.2-4-1,Plot B.2-4-1,Plot B.2-4-1,Plot B.2-4-1,Plot B.2-4-1,TBA,TBA,TBA,TBA,TBA,TBA,TBA,TBA,TBA,AW013203,"10 Gas Holder Place,","London,",  SE11 5BH,10 years.,Ryefield Board: MSDB-B2-5,"R459-MBS-BZ-04-CT-X-61241 - B241 - DCN18 Domestic Electrical Cert - Flat 85 - 10 Gas Holder Place, London, SE11 5BH.pdf"
Plot B.2-4-2,Plot B.2-4-2,Plot B.2-4-2,Plot B.2-4-2,Plot B.2-4-2,Plot B.2-4-2,TBA,TBA,TBA,TBA,TBA,TBA,TBA,TBA,TBA,AW013204,"10 Gas Holder Place,","London,",  SE11 5BH,10 years.,Ryefield Board: MSDB-B2-5,"R459-MBS-BZ-04-CT-X-61242 - B242 - DCN18 Domestic Electrical Cert - Flat 86 - 10 Gas Holder Place, London, SE11 5BH.pdf"
Plot B.2-4-3,Plot B.2-4-3,Plot B.2-4-3,Plot B.2-4-3,Plot B.2-4-3,Plot B.2-4-3,TBA,TBA,TBA,TBA,TBA,TBA,TBA,TBA,TBA,AW013205,"10 Gas Holder Place,","London,",  SE11 5BH,10 years.,Ryefield Board: MSDB-B2-5,"R459-MBS-BZ-04-CT-X-61243 - B243 - DCN18 Domestic Electrical Cert - Flat 77 - 10 Gas Holder Place, London, SE11 5BH.pdf"
Plot B.2-4-4,Plot B.2-4-4,Plot B.2-4-4,Plot B.2-4-4,Plot B.2-4-4,Plot B.2-4-4,TBA,TBA,TBA,TBA,TBA,TBA,TBA,TBA,TBA,AW013206,"10 Gas Holder Place,","London,",  SE11 5BH,10 years.,Ryefield Board: MSDB-B2-5,"R459-MBS-BZ-04-CT-X-61244 - B244 - DCN18 Domestic Electrical Cert - Flat 78 - 10 Gas Holder Place, London, SE11 5BH.pdf"
Plot B.2-4-5,Plot B.2-4-5,Plot B.2-4-5,Plot B.2-4-5,Plot B.2-4-5,Plot B.2-4-5,TBA,TBA,TBA,TBA,TBA,TBA,TBA,TBA,TBA,AW013207,"10 Gas Holder Place,","London,",  SE11 5BH,10 years.,Ryefield Board: MSDB-B2-5,"R459-MBS-BZ-04-CT-X-61245 - B245 - DCN18 Domestic Electrical Cert - Flat 79 - 10 Gas Holder Place, London, SE11 5BH.pdf"
Plot B.2-4-6,Plot B.2-4-6,Plot B.2-4-6,Plot B.2-4-6,Plot B.2-4-6,Plot B.2-4-6,TBA,TBA,TBA,TBA,TBA,TBA,TBA,TBA,TBA,AW013208,"10 Gas Holder Place,","London,",  SE11 5BH,10 years.,Ryefield Board: MSDB-B2-5,"R459-MBS-BZ-04-CT-X-61246 - B246 - DCN18 Domestic Electrical Cert - Flat 80 - 10 Gas Holder Place, London, SE11 5BH.pdf"
Plot B.2-4-8,Plot B.2-4-8,Plot B.2-4-8,Plot B.2-4-8,Plot B.2-4-8,Plot B.2-4-8,TBA,TBA,TBA,TBA,TBA,TBA,TBA,TBA,TBA,AW013210,"10 Gas Holder Place,","London,",  SE11 5BH,10 years.,Ryefield Board: MSDB-B2-5,"R459-MBS-BZ-04-CT-X-61248 - B248 - DCN18 Domestic Electrical Cert - Flat 81 - 10 Gas Holder Place, London, SE11 5BH.pdf"
Plot B.2-4-9,Plot B.2-4-9,Plot B.2-4-9,Plot B.2-4-9,Plot B.2-4-9,Plot B.2-4-9,TBA,TBA,TBA,TBA,TBA,TBA,TBA,TBA,TBA,AW013211,"10 Gas Holder Place,","London,",  SE11 5BH,10 years.,Ryefield Board: MSDB-B2-5,"R459-MBS-BZ-04-CT-X-61249 - B249 - DCN18 Domestic Electrical Cert - Flat 82 - 10 Gas Holder Place, London, SE11 5BH.pdf"
Plot B.2-4-10,Plot B.2-4-10,Plot B.2-4-10,Plot B.2-4-10,Plot B.2-4-10,Plot B.2-4-10,TBA,TBA,TBA,TBA,TBA,TBA,TBA,TBA,TBA,AW013292,"10 Gas Holder Place,","London,",  SE11 5BH,10 years.,Ryefield Board: MSDB-B2-5,"R459-MBS-BZ-04-CT-X-612410 - B2410 - DCN18 Domestic Electrical Cert - Flat 83 - 10 Gas Holder Place, London, SE11 5BH.pdf"
Plot B.2-4-11,Plot B.2-4-11,Plot B.2-4-11,Plot B.2-4-11,Plot B.2-4-11,Plot B.2-4-11,TBA,TBA,TBA,TBA,TBA,TBA,TBA,TBA,TBA,AW013293,"10 Gas Holder Place,","London,",  SE11 5BH,10 years.,Ryefield Board: MSDB-B2-5,"R459-MBS-BZ-04-CT-X-612411 - B2411 - DCN18 Domestic Electrical Cert - Flat 84 - 10 Gas Holder Place, London, SE11 5BH.pdf"
Plot B.2-5-1,Plot B.2-5-1,Plot B.2-5-1,Plot B.2-5-1,Plot B.2-5-1,Plot B.2-5-1,TBA,TBA,TBA,TBA,TBA,TBA,TBA,TBA,TBA,AW013212,"9 Woodall Way,","London,",  SE11 5BQ,10 years.,Ryefield Board: MSDB-B2-5,"R459-MBS-BZ-05-CT-X-61251 - B251 - DCN18 Domestic Electrical Cert - Flat 2 - 9 Woodall Way, London, SE11 5BQ.pdf"
Plot B.2-5-2,Plot B.2-5-2,Plot B.2-5-2,Plot B.2-5-2,Plot B.2-5-2,Plot B.2-5-2,TBA,TBA,TBA,TBA,TBA,TBA,TBA,TBA,TBA,AW013213,"9 Woodall Way,","London,",  SE11 5BQ,10 years.,Ryefield Board: MSDB-B2-5,"R459-MBS-BZ-05-CT-X-61252 - B252 - DCN18 Domestic Electrical Cert - Flat 3 - 9 Woodall Way, London, SE11 5BQ.pdf"
Plot B.2-5-3,Plot B.2-5-3,Plot B.2-5-3,Plot B.2-5-3,Plot B.2-5-3,Plot B.2-5-3,TBA,TBA,TBA,TBA,TBA,TBA,TBA,TBA,TBA,AW013214,"9 Woodall Way,","London,",  SE11 5BQ,10 years.,Ryefield Board: MSDB-B2-5,"R459-MBS-BZ-05-CT-X-61253 - B253 - DCN18 Domestic Electrical Cert - Flat 4 - 9 Woodall Way, London, SE11 5BQ.pdf"
Plot B.2-5-4,Plot B.2-5-4,Plot B.2-5-4,Plot B.2-5-4,Plot B.2-5-4,Plot B.2-5-4,TBA,TBA,TBA,TBA,TBA,TBA,TBA,TBA,TBA,AW013215,"9 Woodall Way,","London,",  SE11 5BQ,10 years.,Ryefield Board: MSDB-B2-5,"R459-MBS-BZ-05-CT-X-61254 - B254 - DCN18 Domestic Electrical Cert - Flat 4 - 9 Woodall Way, London, SE11 5BQ.pdf"
Plot B.2-5-5,Plot B.2-5-5,Plot B.2-5-5,Plot B.2-5-5,Plot B.2-5-5,Plot B.2-5-5,TBA,TBA,TBA,TBA,TBA,TBA,TBA,TBA,TBA,AW013216,"9 Woodall Way,","London,",  SE11 5BQ,10 years.,Ryefield Board: MSDB-B2-5,"R459-MBS-BZ-05-CT-X-61255 - B255 - DCN18 Domestic Electrical Cert - Flat 5 - 9 Woodall Way, London, SE11 5BQ.pdf"
Plot B.2-5-6,Plot B.2-5-6,Plot B.2-5-6,Plot B.2-5-6,Plot B.2-5-6,Plot B.2-5-6,TBA,TBA,TBA,TBA,TBA,TBA,TBA,TBA,TBA,AW013217,"9 Woodall Way,","London,",  SE11 5BQ,10 years.,Ryefield Board: MSDB-B2-5,"R459-MBS-BZ-05-CT-X-61256 - B256 - DCN18 Domestic Electrical Cert - Flat 6 - 9 Woodall Way, London, SE11 5BQ.pdf"
Plot B.2-5-8,Plot B.2-5-8,Plot B.2-5-8,Plot B.2-5-8,Plot B.2-5-8,Plot B.2-5-8,TBA,TBA,TBA,TBA,TBA,TBA,TBA,TBA,TBA,AW013219,"9 Woodall Way,","London,",  SE11 5BQ,10 years.,Ryefield Board: MSDB-B2-5,"R459-MBS-BZ-05-CT-X-61258 - B258 - DCN18 Domestic Electrical Cert - Flat 7 - 9 Woodall Way, London, SE11 5BQ.pdf"
Plot B.2-5-9,Plot B.2-5-9,Plot B.2-5-9,Plot B.2-5-9,Plot B.2-5-9,Plot B.2-5-9,TBA,TBA,TBA,TBA,TBA,TBA,TBA,TBA,TBA,AW013220,"9 Woodall Way,","London,",  SE11 5BQ,10 years.,Ryefield Board: MSDB-B2-5,"R459-MBS-BZ-05-CT-X-61259 - B259 - DCN18 Domestic Electrical Cert - Flat 8 - 9 Woodall Way, London, SE11 5BQ.pdf"
Plot B.2-5-10,Plot B.2-5-10,Plot B.2-5-10,Plot B.2-5-10,Plot B.2-5-10,Plot B.2-5-10,TBA,TBA,TBA,TBA,TBA,TBA,TBA,TBA,TBA,AW013294,"9 Woodall Way,","London,",  SE11 5BQ,10 years.,Ryefield Board: MSDB-B2-5,"R459-MBS-BZ-05-CT-X-2510 - B2510 - DCN18 Domestic Electrical Cert - Flat 9 - 9 Woodall Way, London, SE11 5BQ.pdf"
Plot B.2-5-11,Plot B.2-5-11,Plot B.2-5-11,Plot B.2-5-11,Plot B.2-5-11,Plot B.2-5-11,TBA,TBA,TBA,TBA,TBA,TBA,TBA,TBA,TBA,AW013295,"9 Woodall Way,","London,",  SE11 5BQ,10 years.,Ryefield Board: MSDB-B2-5,"R459-MBS-BZ-05-CT-X-2511 - B2511 - DCN18 Domestic Electrical Cert - Flat 10 - 9 Woodall Way, London, SE11 5BQ.pdf"
Plot B.2-6-1,Plot B.2-6-1,Plot B.2-6-1,Plot B.2-6-1,Plot B.2-6-1,Plot B.2-6-1,TBA,TBA,TBA,TBA,TBA,TBA,TBA,TBA,TBA,AW013221,"9 Woodall Way,","London,",  SE11 5BQ,10 years.,Ryefield Board: MSDB-B2-5,"R459-MBS-BZ-06-CT-X-261 - B261 - DCN18 Domestic Electrical Cert - Flat 11 - 9 Woodall Way, London, SE11 5BQ.pdf"
Plot B.2-6-2,Plot B.2-6-2,Plot B.2-6-2,Plot B.2-6-2,Plot B.2-6-2,Plot B.2-6-2,TBA,TBA,TBA,TBA,TBA,TBA,TBA,TBA,TBA,AW013222,"9 Woodall Way,","London,",  SE11 5BQ,10 years.,Ryefield Board: MSDB-B2-5,"R459-MBS-BZ-06-CT-X-262 - B262 - DCN18 Domestic Electrical Cert - Flat 12 - 9 Woodall Way, London, SE11 5BQ.pdf"
Plot B.2-6-3,Plot B.2-6-3,Plot B.2-6-3,Plot B.2-6-3,Plot B.2-6-3,Plot B.2-6-3,TBA,TBA,TBA,TBA,TBA,TBA,TBA,TBA,TBA,AW013223,"9 Woodall Way,","London,",  SE11 5BQ,10 years.,Ryefield Board: MSDB-B2-5,"R459-MBS-BZ-06-CT-X-263 - B263 - DCN18 Domestic Electrical Cert - Flat 14 - 9 Woodall Way, London, SE11 5BQ.pdf"
Plot B.2-6-4,Plot B.2-6-4,Plot B.2-6-4,Plot B.2-6-4,Plot B.2-6-4,Plot B.2-6-4,TBA,TBA,TBA,TBA,TBA,TBA,TBA,TBA,TBA,AW013224,"9 Woodall Way,","London,",  SE11 5BQ,10 years.,Ryefield Board: MSDB-B2-5,"R459-MBS-BZ-06-CT-X-264 - B264 - DCN18 Domestic Electrical Cert - Flat 13 - 9 Woodall Way, London, SE11 5BQ.pdf"
Plot B.2-6-5,Plot B.2-6-5,Plot B.2-6-5,Plot B.2-6-5,Plot B.2-6-5,Plot B.2-6-5,TBA,TBA,TBA,TBA,TBA,TBA,TBA,TBA,TBA,AW013225,"9 Woodall Way,","London,",  SE11 5BQ,10 years.,Ryefield Board: MSDB-B2-5,"R459-MBS-BZ-06-CT-X-265 - B265 - DCN18 Domestic Electrical Cert - Flat 14 - 9 Woodall Way, London, SE11 5BQ.pdf"
Plot B.2-6-6,Plot B.2-6-6,Plot B.2-6-6,Plot B.2-6-6,Plot B.2-6-6,Plot B.2-6-6,TBA,TBA,TBA,TBA,TBA,TBA,TBA,TBA,TBA,AW013226,"9 Woodall Way,","London,",  SE11 5BQ,10 years.,Ryefield Board: MSDB-B2-5,"R459-MBS-BZ-06-CT-X-266 - B266 - DCN18 Domestic Electrical Cert - Flat 15 - 9 Woodall Way, London, SE11 5BQ.pdf"
Plot B.2-6-8,Plot B.2-6-8,Plot B.2-6-8,Plot B.2-6-8,Plot B.2-6-8,Plot B.2-6-8,TBA,TBA,TBA,TBA,TBA,TBA,TBA,TBA,TBA,AW013228,"9 Woodall Way,","London,",  SE11 5BQ,10 years.,Ryefield Board: MSDB-B2-5,"R459-MBS-BZ-06-CT-X-268 - B268 - DCN18 Domestic Electrical Cert - Flat 16 - 9 Woodall Way, London, SE11 5BQ.pdf"
Plot B.2-6-9,Plot B.2-6-9,Plot B.2-6-9,Plot B.2-6-9,Plot B.2-6-9,Plot B.2-6-9,TBA,TBA,TBA,TBA,TBA,TBA,TBA,TBA,TBA,AW013229,"9 Woodall Way,","London,",  SE11 5BQ,10 years.,Ryefield Board: MSDB-B2-5,"R459-MBS-BZ-06-CT-X-269 - B269 - DCN18 Domestic Electrical Cert - Flat 17 - 9 Woodall Way, London, SE11 5BQ.pdf"
Plot B.2-6-10,Plot B.2-6-10,Plot B.2-6-10,Plot B.2-6-10,Plot B.2-6-10,Plot B.2-6-10,TBA,TBA,TBA,TBA,TBA,TBA,TBA,TBA,TBA,AW013296,"9 Woodall Way,","London,",  SE11 5BQ,10 years.,Ryefield Board: MSDB-B2-5,"R459-MBS-BZ-06-CT-X-2610 - B2610 - DCN18 Domestic Electrical Cert - Flat 18 - 9 Woodall Way, London, SE11 5BQ.pdf"
Plot B.2-6-11,Plot B.2-6-11,Plot B.2-6-11,Plot B.2-6-11,Plot B.2-6-11,Plot B.2-6-11,TBA,TBA,TBA,TBA,TBA,TBA,TBA,TBA,TBA,AW013297,"9 Woodall Way,","London,",  SE11 5BQ,10 years.,Ryefield Board: MSDB-B2-8,"R459-MBS-BZ-06-CT-X-2611 - B2611 - DCN18 Domestic Electrical Cert - Flat 19 - 9 Woodall Way, London, SE11 5BQ.pdf"
Plot B.2-7-1,Plot B.2-7-1,Plot B.2-7-1,Plot B.2-7-1,Plot B.2-7-1,Plot B.2-7-1,TBA,TBA,TBA,TBA,TBA,TBA,TBA,TBA,TBA,AW013230,"9 Woodall Way,","London,",  SE11 5BQ,10 years.,Ryefield Board: MSDB-B2-8,"R459-MBS-BZ-07-CT-X-271 - B271 - DCN18 Domestic Electrical Cert - Flat 20 - 9 Woodall Way, London, SE11 5BQ.pdf"
Plot B.2-7-2,Plot B.2-7-2,Plot B.2-7-2,Plot B.2-7-2,Plot B.2-7-2,Plot B.2-7-2,TBA,TBA,TBA,TBA,TBA,TBA,TBA,TBA,TBA,AW013231,"9 Woodall Way,","London,",  SE11 5BQ,10 years.,Ryefield Board: MSDB-B2-8,"R459-MBS-BZ-07-CT-X-272 - B272 - DCN18 Domestic Electrical Cert - Flat 21 - 9 Woodall Way, London, SE11 5BQ.pdf"
Plot B.2-7-3,Plot B.2-7-3,Plot B.2-7-3,Plot B.2-7-3,Plot B.2-7-3,Plot B.2-7-3,TBA,TBA,TBA,TBA,TBA,TBA,TBA,TBA,TBA,AW013232,"9 Woodall Way,","London,",  SE11 5BQ,10 years.,Ryefield Board: MSDB-B2-8,"R459-MBS-BZ-07-CT-X-273 - B273 - DCN18 Domestic Electrical Cert - Flat 24 - 9 Woodall Way, London, SE11 5BQ.pdf"
Plot B.2-7-4,Plot B.2-7-4,Plot B.2-7-4,Plot B.2-7-4,Plot B.2-7-4,Plot B.2-7-4,TBA,TBA,TBA,TBA,TBA,TBA,TBA,TBA,TBA,AW013233,"9 Woodall Way,","London,",  SE11 5BQ,10 years.,Ryefield Board: MSDB-B2-8,"R459-MBS-BZ-07-CT-X-274 - B274 - DCN18 Domestic Electrical Cert - Flat 22 - 9 Woodall Way, London, SE11 5BQ.pdf"
Plot B.2-7-5,Plot B.2-7-5,Plot B.2-7-5,Plot B.2-7-5,Plot B.2-7-5,Plot B.2-7-5,TBA,TBA,TBA,TBA,TBA,TBA,TBA,TBA,TBA,AW013234,"9 Woodall Way,","London,",  SE11 5BQ,10 years.,Ryefield Board: MSDB-B2-8,"R459-MBS-BZ-07-CT-X-275 - B275 - DCN18 Domestic Electrical Cert - Flat 23 - 9 Woodall Way, London, SE11 5BQ.pdf"
Plot B.2-7-6,Plot B.2-7-6,Plot B.2-7-6,Plot B.2-7-6,Plot B.2-7-6,Plot B.2-7-6,TBA,TBA,TBA,TBA,TBA,TBA,TBA,TBA,TBA,AW013235,"9 Woodall Way,","London,",  SE11 5BQ,10 years.,Ryefield Board: MSDB-B2-8,"R459-MBS-BZ-07-CT-X-276 - B276 - DCN18 Domestic Electrical Cert - Flat 24 - 9 Woodall Way, London, SE11 5BQ.pdf"
Plot B.2-7-8,Plot B.2-7-8,Plot B.2-7-8,Plot B.2-7-8,Plot B.2-7-8,Plot B.2-7-8,TBA,TBA,TBA,TBA,TBA,TBA,TBA,TBA,TBA,AW013237,"9 Woodall Way,","London,",  SE11 5BQ,10 years.,Ryefield Board: MSDB-B2-8,"R459-MBS-BZ-07-CT-X-278 - B278 - DCN18 Domestic Electrical Cert - Flat 25 - 9 Woodall Way, London, SE11 5BQ.pdf"
Plot B.2-7-9,Plot B.2-7-9,Plot B.2-7-9,Plot B.2-7-9,Plot B.2-7-9,Plot B.2-7-9,TBA,TBA,TBA,TBA,TBA,TBA,TBA,TBA,TBA,AW013238,"9 Woodall Way,","London,",  SE11 5BQ,10 years.,Ryefield Board: MSDB-B2-8,"R459-MBS-BZ-07-CT-X-279 - B279 - DCN18 Domestic Electrical Cert - Flat 26 - 9 Woodall Way, London, SE11 5BQ.pdf"
Plot B.2-7-10,Plot B.2-7-10,Plot B.2-7-10,Plot B.2-7-10,Plot B.2-7-10,Plot B.2-7-10,TBA,TBA,TBA,TBA,TBA,TBA,TBA,TBA,TBA,AW013298,"9 Woodall Way,","London,",  SE11 5BQ,10 years.,Ryefield Board: MSDB-B2-8,"R459-MBS-BZ-07-CT-X-2710 - B2710 - DCN18 Domestic Electrical Cert - Flat 27 - 9 Woodall Way, London, SE11 5BQ.pdf"
Plot B.2-8-1,Plot B.2-8-1,Plot B.2-8-1,Plot B.2-8-1,Plot B.2-8-1,Plot B.2-8-1,TBA,TBA,TBA,TBA,TBA,TBA,TBA,TBA,TBA,AW013239,"9 Woodall Way,","London,",  SE11 5BQ,10 years.,Ryefield Board: MSDB-B2-8,"R459-MBS-BZ-08-CT-X-281 - B281 - DCN18 Domestic Electrical Cert - Flat 28 - 9 Woodall Way, London, SE11 5BQ.pdf"
Plot B.2-8-2,Plot B.2-8-2,Plot B.2-8-2,Plot B.2-8-2,Plot B.2-8-2,Plot B.2-8-2,TBA,TBA,TBA,TBA,TBA,TBA,TBA,TBA,TBA,AW013240,"9 Woodall Way,","London,",  SE11 5BQ,10 years.,Ryefield Board: MSDB-B2-8,"R459-MBS-BZ-08-CT-X-282 - B282 - DCN18 Domestic Electrical Cert - Flat 29 - 9 Woodall Way, London, SE11 5BQ.pdf"
Plot B.2-8-4,Plot B.2-8-4,Plot B.2-8-4,Plot B.2-8-4,Plot B.2-8-4,Plot B.2-8-4,TBA,TBA,TBA,TBA,TBA,TBA,TBA,TBA,TBA,AW013242,"9 Woodall Way,","London,",  SE11 5BQ,10 years.,Ryefield Board: MSDB-B2-8,"R459-MBS-BZ-08-CT-X-284 - B284 - DCN18 Domestic Electrical Cert - Flat 30 - 9 Woodall Way, London, SE11 5BQ.pdf"
Plot B.2-8-5,Plot B.2-8-5,Plot B.2-8-5,Plot B.2-8-5,Plot B.2-8-5,Plot B.2-8-5,TBA,TBA,TBA,TBA,TBA,TBA,TBA,TBA,TBA,AW013243,"9 Woodall Way,","London,",  SE11 5BQ,10 years.,Ryefield Board: MSDB-B2-8,"R459-MBS-BZ-08-CT-X-285 - B285 - DCN18 Domestic Electrical Cert - Flat 31 - 9 Woodall Way, London, SE11 5BQ.pdf"
Plot B.2-8-6,Plot B.2-8-6,Plot B.2-8-6,Plot B.2-8-6,Plot B.2-8-6,Plot B.2-8-6,TBA,TBA,TBA,TBA,TBA,TBA,TBA,TBA,TBA,AW013244,"9 Woodall Way,","London,",  SE11 5BQ,10 years.,Ryefield Board: MSDB-B2-8,"R459-MBS-BZ-08-CT-X-286 - B286 - DCN18 Domestic Electrical Cert - Flat 32 - 9 Woodall Way, London, SE11 5BQ.pdf"
Plot B.2-9-1,Plot B.2-9-1,Plot B.2-9-1,Plot B.2-9-1,Plot B.2-9-1,Plot B.2-9-1,TBA,TBA,TBA,TBA,TBA,TBA,TBA,TBA,TBA,AW013245,"9 Woodall Way,","London,",  SE11 5BQ,10 years.,Ryefield Board: MSDB-B2-8,"R459-MBS-BZ-09-CT-X-291 - B291 - DCN18 Domestic Electrical Cert - Flat 33 - 9 Woodall Way, London, SE11 5BQ.pdf"
Plot B.2-9-2,Plot B.2-9-2,Plot B.2-9-2,Plot B.2-9-2,Plot B.2-9-2,Plot B.2-9-2,TBA,TBA,TBA,TBA,TBA,TBA,TBA,TBA,TBA,AW013246,"9 Woodall Way,","London,",  SE11 5BQ,10 years.,Ryefield Board: MSDB-B2-8,"R459-MBS-BZ-09-CT-X-292 - B292 - DCN18 Domestic Electrical Cert - Flat 34 - 9 Woodall Way, London, SE11 5BQ.pdf"
Plot B.2-9-4,Plot B.2-9-4,Plot B.2-9-4,Plot B.2-9-4,Plot B.2-9-4,Plot B.2-9-4,TBA,TBA,TBA,TBA,TBA,TBA,TBA,TBA,TBA,AW013248,"9 Woodall Way,","London,",  SE11 5BQ,10 years.,Ryefield Board: MSDB-B2-8,"R459-MBS-BZ-09-CT-X-294 - B294 - DCN18 Domestic Electrical Cert - Flat 35 - 9 Woodall Way, London, SE11 5BQ.pdf"
Plot B.2-9-5,Plot B.2-9-5,Plot B.2-9-5,Plot B.2-9-5,Plot B.2-9-5,Plot B.2-9-5,TBA,TBA,TBA,TBA,TBA,TBA,TBA,TBA,TBA,AW013249,"9 Woodall Way,","London,",  SE11 5BQ,10 years.,Ryefield Board: MSDB-B2-8,"R459-MBS-BZ-09-CT-X-295 - B295 - DCN18 Domestic Electrical Cert - Flat 36 - 9 Woodall Way, London, SE11 5BQ.pdf"
Plot B.2-9-6,Plot B.2-9-6,Plot B.2-9-6,Plot B.2-9-6,Plot B.2-9-6,Plot B.2-9-6,TBA,TBA,TBA,TBA,TBA,TBA,TBA,TBA,TBA,AW013227,"9 Woodall Way,","London,",  SE11 5BQ,10 years.,Ryefield Board: MSDB-B2-8,"R459-MBS-BZ-09-CT-X-296 - B296 - DCN18 Domestic Electrical Cert - Flat 37 - 9 Woodall Way, London, SE11 5BQ.pdf"
Plot B.2-10-1,Plot B.2-10-1,Plot B.2-10-1,Plot B.2-10-1,Plot B.2-10-1,Plot B.2-10-1,TBA,TBA,TBA,TBA,TBA,TBA,TBA,TBA,TBA,AW013286,"9 Woodall Way,","London,",  SE11 5BQ,10 years.,Ryefield Board: MSDB-B2-8,"R459-MBS-BZ-10-CT-X-2101 - B2101 - DCN18 Domestic Electrical Cert - Flat 38 - 9 Woodall Way, London, SE11 5BQ.pdf"
Plot B.2-10-2,Plot B.2-10-2,Plot B.2-10-2,Plot B.2-10-2,Plot B.2-10-2,Plot B.2-10-2,TBA,TBA,TBA,TBA,TBA,TBA,TBA,TBA,TBA,AW013287,"9 Woodall Way,","London,",  SE11 5BQ,10 years.,Ryefield Board: MSDB-B2-8,"R459-MBS-BZ-10-CT-X-2102 - B2102 - DCN18 Domestic Electrical Cert - Flat 39 - 9 Woodall Way, London, SE11 5BQ.pdf"
Plot B.2-10-4,Plot B.2-10-4,Plot B.2-10-4,Plot B.2-10-4,Plot B.2-10-4,Plot B.2-10-4,TBA,TBA,TBA,TBA,TBA,TBA,TBA,TBA,TBA,AW013286,"9 Woodall Way,","London,",  SE11 5BQ,10 years.,Ryefield Board: MSDB-B2-8,"R459-MBS-BZ-10-CT-X-2104 - B2104 - DCN18 Domestic Electrical Cert - Flat 40 - 9 Woodall Way, London, SE11 5BQ.pdf"
Plot B.2-10-5,Plot B.2-10-5,Plot B.2-10-5,Plot B.2-10-5,Plot B.2-10-5,Plot B.2-10-5,TBA,TBA,TBA,TBA,TBA,TBA,TBA,TBA,TBA,AW013287,"9 Woodall Way,","London,",  SE11 5BQ,10 years.,Ryefield Board: MSDB-B2-8,"R459-MBS-BZ-10-CT-X-2105 - B2105 - DCN18 Domestic Electrical Cert - Flat 41 - 9 Woodall Way, London, SE11 5BQ.pdf"
Plot B.2-11-1,Plot B.2-11-1,Plot B.2-11-1,Plot B.2-11-1,Plot B.2-11-1,Plot B.2-11-1,TBA,TBA,TBA,TBA,TBA,TBA,TBA,TBA,TBA,AW013247,"9 Woodall Way,","London,",  SE11 5BQ,10 years.,Ryefield Board: MSDB-B2-8,"R459-MBS-BZ-11-CT-X-2111 - B2111 - DCN18 Domestic Electrical Cert - Flat 42 - 9 Woodall Way, London, SE11 5BQ.pdf"
Plot B.2-11-2,Plot B.2-11-2,Plot B.2-11-2,Plot B.2-11-2,Plot B.2-11-2,Plot B.2-11-2,TBA,TBA,TBA,TBA,TBA,TBA,TBA,TBA,TBA,AW169928,"9 Woodall Way,","London,",  SE11 5BQ,10 years.,Ryefield Board: MSDB-B2-8,"R459-MBS-BZ-11-CT-X-2112 - B2112 - DCN18 Domestic Electrical Cert - Flat 43 - 9 Woodall Way, London, SE11 5BQ.pdf"
